{"type":"FeatureCollection","metadata":{"generated":1786879480000,"url":"https://earthquake.usgs.gov/fdsnws/event/1/query?format=geojson&starttime=2026-07-17&minmagnitude=6.5&orderby=time","title":"USGS Earthquakes","status":200,"api":"2.7.0","count":5},"features":[{"type":"Feature","properties":{"mag":6.9,"place":"15 km NNW of Pematangsiantar, Indonesia","time":1786791291796,"updated":1786878088642,"tz":null,"url":"https://earthquake.usgs.gov/earthquakes/eventpage/us6000tkyk","detail":"https://earthquake.usgs.gov/fdsnws/event/1/query?eventid=us6000tkyk&format=geojson","felt":43,"cdi":4.3,"mmi":5.191,"alert":"green","status":"reviewed","tsunami":0,"sig":751,"net":"us","code":"6000tkyk","ids":",us6000tkyk,usauto6000tkyk,attjt4zg,","sources":",us,usauto,at,","types":",dyfi,ground-failure,internal-moment-tensor,internal-origin,losspager,moment-tensor,origin,phase-data,shakemap,","nst":110,"dmin":2.281,"rms":0.73,"gap":39,"magType":"mww","type":"earthquake","title":"M 6.9 - 15 km NNW of Pematangsiantar, Indonesia"},"geometry":{"type":"Point","coordinates":[99.015,3.0856,172.526]},"id":"us6000tkyk"},
{"type":"Feature","properties":{"mag":7.7,"place":"68 km NNW of Ende, Indonesia","time":1786744701564,"updated":1786842746266,"tz":null,"url":"https://earthquake.usgs.gov/earthquakes/eventpage/us6000tkt2","detail":"https://earthquake.usgs.gov/fdsnws/event/1/query?eventid=us6000tkt2&format=geojson","felt":42,"cdi":7.9,"mmi":8.378,"alert":"yellow","status":"reviewed","tsunami":0,"sig":945,"net":"us","code":"6000tkt2","ids":",us6000tkt2,usauto6000tkt2,attjs51g,","sources":",us,usauto,at,","types":",dyfi,event-sequence,finite-fault,general-text,ground-failure,internal-moment-tensor,internal-origin,losspager,moment-tensor,oaf,origin,phase-data,shakemap,","nst":107,"dmin":3.218,"rms":1.16,"gap":36,"magType":"mww","type":"earthquake","title":"M 7.7 - 68 km NNW of Ende, Indonesia"},"geometry":{"type":"Point","coordinates":[121.3517,-8.3101,10]},"id":"us6000tkt2"},
{"type":"Feature","properties":{"mag":7.4,"place":"5 km S of San José del Palmar, Colombia","time":1786365268125,"updated":1786862397287,"tz":null,"url":"https://earthquake.usgs.gov/earthquakes/eventpage/us6000tjl2","detail":"https://earthquake.usgs.gov/fdsnws/event/1/query?eventid=us6000tjl2&format=geojson","felt":1177,"cdi":7.9,"mmi":7.999,"alert":"red","status":"reviewed","tsunami":0,"sig":2790,"net":"us","code":"6000tjl2","ids":",us6000tjl2,usauto6000tjl2,attjk09g,pt26222000,","sources":",us,usauto,at,pt,","types":",dyfi,event-sequence,finite-fault,general-text,ground-failure,internal-moment-tensor,internal-origin,losspager,moment-tensor,oaf,origin,phase-data,shakemap,","nst":151,"dmin":1.515,"rms":0.86,"gap":19,"magType":"mww","type":"earthquake","title":"M 7.4 - 5 km S of San José del Palmar, Colombia"},"geometry":{"type":"Point","coordinates":[-76.2422,4.8436,110.285]},"id":"us6000tjl2"},
{"type":"Feature","properties":{"mag":6.8,"place":"The 2026 Kumamoto Region, Japan Earthquake","time":1785223635512,"updated":1786696100401,"tz":null,"url":"https://earthquake.usgs.gov/earthquakes/eventpage/us6000tgb9","detail":"https://earthquake.usgs.gov/fdsnws/event/1/query?eventid=us6000tgb9&format=geojson","felt":92,"cdi":8.7,"mmi":9.243,"alert":"red","status":"reviewed","tsunami":0,"sig":723,"net":"us","code":"6000tgb9","ids":",attivjdk,pt26209004,us6000tgb9,usauto6000tgb9,","sources":",at,pt,us,usauto,","types":",associate,dyfi,earthquake-name,finite-fault,general-text,ground-failure,internal-moment-tensor,internal-origin,losspager,moment-tensor,origin,phase-data,shakemap,significance,","nst":102,"dmin":1.191,"rms":1.38,"gap":39,"magType":"mww","type":"earthquake","title":"M 6.8 - The 2026 Kumamoto Region, Japan Earthquake"},"geometry":{"type":"Point","coordinates":[130.7217,32.6817,10]},"id":"us6000tgb9"},
{"type":"Feature","properties":{"mag":7.3,"place":"52 km W of Puerto Madero, Mexico","time":1784299720227,"updated":1786512832167,"tz":null,"url":"https://earthquake.usgs.gov/earthquakes/eventpage/us7000t1bu","detail":"https://earthquake.usgs.gov/fdsnws/event/1/query?eventid=us7000t1bu&format=geojson","felt":288,"cdi":7.4,"mmi":7.027,"alert":"yellow","status":"reviewed","tsunami":0,"sig":1033,"net":"us","code":"7000t1bu","ids":",attibqh8,us7000t1bu,usauto7000t1bu,","sources":",at,us,usauto,","types":",dyfi,finite-fault,general-text,ground-failure,impact-text,internal-moment-tensor,losspager,moment-tensor,origin,phase-data,shakemap,","nst":249,"dmin":3.109,"rms":1.09,"gap":51,"magType":"mww","type":"earthquake","title":"M 7.3 - 52 km W of Puerto Madero, Mexico"},"geometry":{"type":"Point","coordinates":[-92.8969,14.6361,22]},"id":"us7000t1bu"}],"bbox":[-92.8969,-8.3101,10,130.7217,32.6817,172.526]}