{"type":"FeatureCollection","features":[{"type":"Feature","id":1,"geometry":{"type":"LineString","coordinates":[[-108.587,21.908],[-108.582,21.905],[-108.582,21.905],[-108.397,21.835],[-108.114,21.72],[-107.928,21.686],[-107.774,21.74],[-107.586,21.742],[-107.393,21.748],[-107.171,21.752],[-107.046,21.754],[-106.89,21.799]]},"properties":{"OBJECTID":1,"Shape_Leng":1.75151249228,"NAME":"Tamayo Fracture Zone","Shape_Le_1":1.75151249287,"LABEL":"Transform Boundary","Shape_Length":1.7515124928709422}},{"type":"Feature","id":2,"geometry":{"type":"LineString","coordinates":[[-105.268,18.777],[-105.247,18.762],[-105.352,18.551],[-105.442,18.355],[-105.51,18.14],[-105.586,17.881],[-105.586,17.881],[-105.499,17.828],[-105.586,17.881]]},"properties":{"OBJECTID":2,"Shape_Leng":1.17624473669,"NAME":" ","Shape_Le_1":1.17624473674,"LABEL":"Convergent Boundary","Shape_Length":1.176244736735136}},{"type":"Feature","id":3,"geometry":{"type":"LineString","coordinates":[[-46.817,15.48],[-47.398,15.804],[-47.693,15.957],[-48.515,16.013],[-49.207,16.035],[-49.803,15.983],[-50.467,15.87],[-51.024,16.073],[-51.661,16.321],[-52.304,16.567],[-52.881,16.761],[-53.46,16.956],[-54.156,17.136],[-54.852,17.309],[-55.484,17.784],[-56.118,18.258],[-56.804,18.694],[-57.493,19.052],[-58.309,19.192],[-59.13,19.325],[-59.949,19.455],[-60.753,19.208],[-61.385,19.011]]},"properties":{"OBJECTID":3,"Shape_Leng":15.5695077526,"NAME":"N.A.-S.A. Plate Boundary","Shape_Le_1":15.5695077521,"LABEL":"Convergent Boundary","Shape_Length":15.569507752143435}},{"type":"Feature","id":4,"geometry":{"type":"LineString","coordinates":[[-177.385,-24.02],[-177.183,-23.575],[-177.102,-23.414],[-176.913,-23.048],[-176.748,-22.735],[-176.709,-22.5],[-176.691,-22.286],[-176.635,-22.231],[-176.601,-22.007],[-176.52,-21.811],[-176.449,-21.601],[-176.405,-21.487],[-176.372,-21.301],[-176.322,-21.113],[-176.289,-21],[-176.264,-20.891],[-176.237,-20.796],[-176.19,-20.655],[-176.176,-20.494],[-176.159,-20.423],[-176.152,-20.265],[-176.116,-20.129],[-176.182,-20.106],[-176.122,-19.884],[-176.079,-19.814],[-176.027,-19.651],[-175.966,-19.422]]},"properties":{"OBJECTID":4,"Shape_Leng":4.9326348668,"NAME":"East Lau Spreading Center","Shape_Le_1":4.93263486657,"LABEL":"Divergent Boundary","Shape_Length":4.932634866571534}},{"type":"Feature","id":5,"geometry":{"type":"LineString","coordinates":[[-177.411,-24.077],[-177.116,-24.062],[-176.887,-24.029],[-176.356,-23.952],[-175.691,-23.853],[-174.985,-23.75],[-174.985,-23.75],[-174.97,-23.724],[-174.964,-23.715]]},"properties":{"OBJECTID":5,"Shape_Leng":2.48990362646,"NAME":" ","Shape_Le_1":2.48990362627,"LABEL":"Convergent Boundary","Shape_Length":2.4899036262697525}},{"type":"Feature","id":6,"geometry":{"type":"LineString","coordinates":[[-114.421,-22.114],[-114.125,-22.106],[-113.906,-22.102],[-113.61,-22.126],[-113.28,-22.223],[-112.934,-22.407],[-112.575,-22.619],[-112.208,-22.821],[-111.924,-23.016],[-111.741,-23.209]]},"properties":{"OBJECTID":6,"Shape_Leng":2.99426873585,"NAME":"Oceanic Convergent Boundary","Shape_Le_1":2.99426873521,"LABEL":"Transform Boundary","Shape_Length":2.994268735214846}},{"type":"Feature","id":7,"geometry":{"type":"LineString","coordinates":[[-112.023,-31.536],[-111.66,-31.556],[-111.202,-31.564],[-110.687,-31.715],[-110.21,-31.92],[-109.791,-32.115],[-109.435,-32.4],[-109.206,-32.661],[-108.972,-32.937]]},"properties":{"OBJECTID":7,"Shape_Leng":3.50473357714,"NAME":"Oceanic Convergent Boundary","Shape_Le_1":3.5047335778,"LABEL":"Transform Boundary","Shape_Length":3.5047335777950934}},{"type":"Feature","id":8,"geometry":{"type":"LineString","coordinates":[[68.272,-6.806],[69.007,-6.538],[69.806,-6.445],[70.292,-6.474],[70.786,-6.502],[71.312,-6.599],[71.834,-6.696],[72.355,-6.867],[72.884,-7.038],[73.392,-7.039],[73.544,-6.191],[73.704,-5.778],[73.77,-4.927],[73.883,-4.307],[74.358,-4.411],[74.833,-4.514],[75.518,-4.776],[76.203,-5.038],[76.779,-5.046],[77.356,-5.055],[77.981,-4.994],[78.606,-4.932],[79.141,-4.752],[79.676,-4.573],[80.374,-4.393],[81.072,-4.213],[81.701,-4.031],[82.33,-3.848],[82.796,-3.641],[83.263,-3.433],[83.729,-3.225],[84.195,-3.017],[84.987,-3.181],[85.779,-3.344],[86.501,-3.716],[87.225,-4.088],[87.923,-3.529],[88.62,-2.969],[88.828,-2.271],[89.036,-1.574],[89.43,-1.179],[89.825,-0.783],[90.63,-0.45],[91.436,-0.117],[92.241,0.216],[93.046,0.549],[93.852,0.882],[94.415,1.493],[94.976,2.098]]},"properties":{"OBJECTID":8,"Shape_Leng":32.4231402113,"NAME":"Ninety East Sumatra","Shape_Le_1":32.423140211,"LABEL":"Convergent Boundary","Shape_Length":32.42314021099778}},{"type":"Feature","id":9,"geometry":{"type":"LineString","coordinates":[[173.425,-18.52],[173.447,-18.774],[173.453,-18.999],[173.439,-19.221],[173.429,-19.43],[173.398,-19.662],[173.36,-19.89],[173.335,-20.086],[173.351,-20.377],[173.384,-20.625],[173.38,-20.837],[173.383,-20.995],[173.379,-21.14]]},"properties":{"OBJECTID":9,"Shape_Leng":6.73185282442,"NAME":"North Fiji Basin Spreading Center","Shape_Le_1":6.73185282319,"LABEL":"Divergent Boundary","Shape_Length":2.6312527856838828}},{"type":"Feature","id":10,"geometry":{"type":"LineString","coordinates":[[151.407,-3.737],[151.695,-3.761]]},"properties":{"OBJECTID":10,"Shape_Leng":2.02210295476,"NAME":" ","Shape_Le_1":2.02210295326,"LABEL":"Divergent Boundary","Shape_Length":0.2892254106003311}},{"type":"Feature","id":11,"geometry":{"type":"LineString","coordinates":[[120.291,-11.508],[120.451,-11.524],[120.886,-11.492],[121.11,-11.493],[121.783,-11.412],[122.627,-11.188],[123.217,-10.995],[123.96,-10.708],[124.734,-10.39],[125.159,-10.159],[125.482,-9.984],[125.869,-9.784],[126.333,-9.596],[126.853,-9.39],[127.43,-9.221],[127.9,-9.133],[128.376,-9.095],[129.106,-9.02],[129.861,-8.926],[130.54,-8.726],[130.933,-8.562],[131.415,-8.267],[131.867,-7.661],[132.431,-6.989],[132.503,-6.908]]},"properties":{"OBJECTID":11,"Shape_Leng":13.4645834991,"NAME":"Timor Trough","Shape_Le_1":13.4645834986,"LABEL":"Convergent Boundary","Shape_Length":13.464583498607125}},{"type":"Feature","id":12,"geometry":{"type":"LineString","coordinates":[[120.56,-8.113],[120.576,-8.41],[120.61,-9.007],[120.821,-9.586],[121.033,-10.165],[120.995,-10.829],[120.901,-11.398]]},"properties":{"OBJECTID":12,"Shape_Leng":3.36972015653,"NAME":" ","Shape_Le_1":3.36972015737,"LABEL":"Transform Boundary","Shape_Length":3.369720157373644}},{"type":"Feature","id":13,"geometry":{"type":"LineString","coordinates":[[125.965,0.202],[125.969,-0.278],[126.393,-0.648],[126.817,-1.018],[127.241,-1.388],[127.666,-1.758],[128.13,-2.1],[128.43,-2.069]]},"properties":{"OBJECTID":13,"Shape_Leng":3.60887110749,"NAME":" ","Shape_Le_1":3.60887110712,"LABEL":"Other","Shape_Length":3.6088711071164448}},{"type":"Feature","id":14,"geometry":{"type":"LineString","coordinates":[[137.244,-1.465],[138.647,-0.707]]},"properties":{"OBJECTID":14,"Shape_Leng":1.59427236248,"NAME":" ","Shape_Le_1":1.59427236262,"LABEL":"Other","Shape_Length":1.5942723626170583}},{"type":"Feature","id":15,"geometry":{"type":"LineString","coordinates":[[133.991,6.334],[133.674,6.156],[133.429,5.962],[133.308,5.734],[133.24,5.349],[133.189,5.016],[133.032,4.788],[132.911,4.454],[132.79,4.12],[132.74,3.698],[132.795,3.312],[132.85,2.908],[132.817,2.539],[132.766,2.257],[132.734,1.728],[132.72,1.165],[132.651,0.812],[132.501,0.018]]},"properties":{"OBJECTID":15,"Shape_Leng":6.78937189138,"NAME":"Mapia Ridge","Shape_Le_1":6.78937189109,"LABEL":"Divergent Boundary","Shape_Length":6.7893718910923235}},{"type":"Feature","id":16,"geometry":{"type":"LineString","coordinates":[[144.326,-4.097],[143.109,-2.621]]},"properties":{"OBJECTID":16,"Shape_Leng":1.91328054773,"NAME":" ","Shape_Le_1":1.91328054781,"LABEL":"Other","Shape_Length":1.9132805478148998}},{"type":"Feature","id":17,"geometry":{"type":"LineString","coordinates":[[151.692,-3.757],[151.699,-3.761],[151.814,-3.72],[151.929,-3.677],[151.987,-3.649],[152.038,-3.636],[152.132,-3.666],[152.226,-3.739],[152.328,-3.822],[152.415,-3.903],[152.478,-3.974],[152.557,-4.039],[152.616,-4.13],[152.662,-4.188],[152.927,-4.603],[153.193,-5.018],[153.403,-5.361],[153.614,-5.704],[153.823,-6.046],[153.924,-6.258]]},"properties":{"OBJECTID":17,"Shape_Leng":3.64329118355,"NAME":" ","Shape_Le_1":3.64329118368,"LABEL":"Transform Boundary","Shape_Length":3.643291183684872}},{"type":"Feature","id":18,"geometry":{"type":"LineString","coordinates":[[129.442,31.793],[128.812,31.601],[128.258,31.471],[127.655,31.362],[127.054,31.273],[126.404,31.227],[125.729,31.202],[125.03,31.196],[124.487,31.25],[123.867,31.326],[123.404,31.468],[122.735,31.516],[122.185,31.54],[121.585,31.598],[120.823,31.875]]},"properties":{"OBJECTID":18,"Shape_Leng":8.76326843198,"NAME":" ","Shape_Le_1":8.7632684321,"LABEL":"Transform Boundary","Shape_Length":8.763268432095886}},{"type":"Feature","id":19,"geometry":{"type":"LineString","coordinates":[[129.442,31.793],[129.121,31.409],[129.059,31.265],[128.819,31.024]]},"properties":{"OBJECTID":19,"Shape_Leng":13.4015894626,"NAME":"Okinawa Trough","Shape_Le_1":13.4015894626,"LABEL":"Divergent Boundary","Shape_Length":0.9973959511907236}},{"type":"Feature","id":20,"geometry":{"type":"LineString","coordinates":[[93.425,25.15],[93.225,25.076],[92.963,25.002],[92.712,25.002],[92.422,25.059],[92.251,25.116],[92.063,25.179],[91.613,25.219],[91.179,25.213],[90.9,25.185],[90.467,25.19],[90.211,25.242],[89.755,25.344]]},"properties":{"OBJECTID":20,"Shape_Leng":3.73837762881,"NAME":"Dauki Thrust","Shape_Le_1":3.7383776283,"LABEL":"Convergent Boundary","Shape_Length":3.7383776283028207}},{"type":"Feature","id":21,"geometry":{"type":"LineString","coordinates":[[92.774,22.929],[92.783,23.227],[92.774,23.651],[92.765,24.129],[92.847,24.508]]},"properties":{"OBJECTID":21,"Shape_Leng":1.58733473686,"NAME":" ","Shape_Le_1":1.58733473665,"LABEL":"Convergent Boundary","Shape_Length":1.5873347366467625}},{"type":"Feature","id":22,"geometry":{"type":"LineString","coordinates":[[96.463,19.258],[96.202,20.674],[96.049,21.793],[95.994,22.821],[95.989,23.166],[96.13,23.867],[96.337,24.58],[96.518,24.905],[96.716,25.184],[96.779,25.401],[96.869,25.68],[96.869,25.843]]},"properties":{"OBJECTID":22,"Shape_Leng":6.79681292587,"NAME":"Sagaing Fault","Shape_Le_1":6.79681292627,"LABEL":"Transform Boundary","Shape_Length":6.796812926266156}},{"type":"Feature","id":23,"geometry":{"type":"LineString","coordinates":[[95.949,24.86],[95.976,24.066],[95.989,23.166],[95.985,23.146]]},"properties":{"OBJECTID":23,"Shape_Leng":1.71466407948,"NAME":"Sagaing Fault","Shape_Le_1":1.7146640796,"LABEL":"Transform Boundary","Shape_Length":1.7146640796034756}},{"type":"Feature","id":24,"geometry":{"type":"LineString","coordinates":[[106.484,20.142],[106.101,20.545],[105.726,20.981],[105.167,21.468],[104.788,21.856],[104.355,22.181],[103.697,22.74],[103.499,22.902],[103.228,23.02],[103.183,23.041],[102.948,23.155],[102.615,23.254],[102.209,23.453],[101.965,23.597],[101.605,23.994],[101.19,24.526],[100.811,25.013],[100.45,25.356],[100.425,25.394],[100.207,25.725]]},"properties":{"OBJECTID":24,"Shape_Leng":8.53291974659,"NAME":"Red River Fault","Shape_Le_1":8.53291974631,"LABEL":"Transform Boundary","Shape_Length":8.532919746313969}},{"type":"Feature","id":25,"geometry":{"type":"LineString","coordinates":[[102.867,23.534],[102.89,23.601],[102.921,23.696],[102.912,23.912],[102.976,24.03],[103.003,24.041],[103.111,24.084],[103.174,24.219],[103.21,24.445],[103.201,24.787],[103.228,24.995],[103.3,25.356],[103.308,25.534],[103.318,25.762],[103.21,26.149],[103.183,26.24],[103.129,26.42],[103.03,26.7],[102.912,27.042],[102.867,27.385],[102.885,28.116],[102.813,28.558],[102.552,29.027],[102.281,29.36]]},"properties":{"OBJECTID":25,"Shape_Leng":6.20566119415,"NAME":"Xiangshuihe - Xiaojiang Fault System","Shape_Le_1":6.20566119513,"LABEL":"Transform Boundary","Shape_Length":6.205661195128195}},{"type":"Feature","id":26,"geometry":{"type":"LineString","coordinates":[[102.281,29.36],[102.209,29.658],[102.092,29.983],[101.92,30.244],[101.577,30.515],[101.09,31.011],[100.441,31.552],[99.728,32.057]]},"properties":{"OBJECTID":26,"Shape_Leng":3.81482451941,"NAME":"Xiangshuihe - Xiaojiang Fault System","Shape_Le_1":3.81482451885,"LABEL":"Transform Boundary","Shape_Length":3.8148245188471455}},{"type":"Feature","id":27,"geometry":{"type":"LineString","coordinates":[[102.964,26.891],[102.918,26.918],[102.822,26.988],[102.615,27.232],[102.389,27.565],[102.245,27.845],[102.227,28.296],[102.263,29.171],[102.249,29.297]]},"properties":{"OBJECTID":27,"Shape_Leng":2.66333640808,"NAME":"Xiangshuihe - Xiaojiang Fault System","Shape_Le_1":2.66333640801,"LABEL":"Transform Boundary","Shape_Length":2.6633364080106046}},{"type":"Feature","id":28,"geometry":{"type":"LineString","coordinates":[[102.249,29.297],[102.281,29.36]]},"properties":{"OBJECTID":28,"Shape_Leng":0.0708720806364,"NAME":" ","Shape_Le_1":0.0708720808325,"LABEL":"Transform Boundary","Shape_Length":0.07087208083250175}},{"type":"Feature","id":29,"geometry":{"type":"LineString","coordinates":[[102.718,30.069],[102.873,30.187],[103.023,30.283],[103.192,30.374],[103.333,30.511],[103.433,30.67],[103.451,30.706],[103.47,30.737],[103.52,30.787],[103.59,30.85],[103.587,30.928],[103.611,30.985],[103.64,31.041],[103.682,31.087],[103.799,31.147],[104.003,31.203],[104.056,31.295],[104.123,31.369],[104.159,31.436],[104.226,31.493],[104.261,31.546],[104.307,31.588],[104.399,31.637],[104.533,31.669],[104.596,31.705],[104.654,31.798],[104.739,31.915],[104.876,32.02],[105.04,32.088],[105.195,32.206],[105.286,32.297],[105.445,32.411],[105.609,32.52],[105.818,32.643],[106.046,32.753]]},"properties":{"OBJECTID":29,"Shape_Leng":4.42569676366,"NAME":"Longmen Shan Thrust Belt","Shape_Le_1":4.42569676406,"LABEL":"Convergent Boundary","Shape_Length":4.4256967640645}},{"type":"Feature","id":30,"geometry":{"type":"LineString","coordinates":[[106.178,36.061],[106.085,36.163],[105.966,36.29],[105.787,36.443],[105.422,36.647],[105.006,36.817],[104.641,36.919],[104.097,37.038],[103.247,37.174],[102.576,37.25],[102.279,37.301],[102.067,37.378],[101.803,37.514],[101.472,37.743],[101.345,37.802],[101.251,37.802],[101.098,37.802],[100.98,37.802],[100.759,37.845],[100.147,38.023],[99.731,38.151],[99.476,38.21],[99.306,38.21],[99.034,38.219],[98.746,38.227],[98.44,38.236],[98.109,38.303],[97.828,38.397],[97.658,38.499],[97.522,38.609]]},"properties":{"OBJECTID":30,"Shape_Leng":9.22143219386,"NAME":"Haiyuan","Shape_Le_1":9.22143219348,"LABEL":"Transform Boundary","Shape_Length":9.221432193483347}},{"type":"Feature","id":31,"geometry":{"type":"LineString","coordinates":[[97.162,40.082],[96.83,40.023],[96.361,39.956],[95.836,39.805],[95.393,39.705],[94.943,39.583],[94.577,39.48],[94.186,39.406]]},"properties":{"OBJECTID":31,"Shape_Leng":3.05564694409,"NAME":"Altyn Tagh","Shape_Le_1":3.05564694427,"LABEL":"Transform Boundary","Shape_Length":3.055646944271247}},{"type":"Feature","id":32,"geometry":{"type":"LineString","coordinates":[[94.71,39.366],[94.452,39.366],[94.282,39.34],[94.016,39.247],[93.999,39.246],[93.917,39.231],[93.831,39.217],[93.708,39.214],[93.618,39.224],[93.537,39.236],[93.47,39.24],[93.337,39.236],[93.235,39.236],[93.193,39.236],[93.182,39.236],[93.12,39.232],[93.095,39.231],[92.971,39.217],[92.857,39.198],[92.635,39.159],[92.489,39.129],[92.371,39.097],[92.289,39.066],[92.169,39.029],[92.037,39],[91.938,38.971],[91.812,38.932],[91.752,38.914],[91.578,38.863],[91.432,38.83],[91.326,38.8],[91.137,38.743],[91.014,38.709],[90.965,38.697],[90.866,38.673],[90.725,38.62],[90.596,38.584],[90.495,38.573],[90.356,38.561],[90.257,38.551],[90.156,38.503],[89.893,38.391],[89.794,38.361],[89.746,38.346],[89.678,38.326],[89.455,38.278],[89.295,38.254],[89.117,38.254],[88.877,38.235],[88.721,38.221],[88.559,38.199],[88.324,38.142],[88.068,38.055],[87.862,37.998],[87.661,37.933],[87.45,37.881],[87.393,37.862],[87.347,37.847],[87.227,37.847],[87.137,37.823],[86.916,37.78],[86.815,37.759],[86.425,37.673],[86.001,37.517],[85.66,37.383],[85.258,37.215],[84.883,37.103],[84.632,37.014],[84.464,36.925],[84.163,36.835],[83.867,36.74],[83.655,36.651],[83.431,36.472],[83.313,36.408],[83.27,36.384],[83.185,36.338],[82.984,36.238],[82.892,36.215],[82.601,36.171],[82.294,36.143],[82.093,36.115],[81.847,36.042],[81.568,35.942],[81.171,35.897],[80.869,35.875],[80.657,35.919],[80.115,35.981],[79.641,36.081],[79.188,36.159],[78.889,36.205],[78.674,36.233],[78.417,36.266],[77.931,36.377],[77.535,36.455],[77.216,36.461],[76.892,36.433]]},"properties":{"OBJECTID":32,"Shape_Leng":18.4536962605,"NAME":"Altyn Tagh","Shape_Le_1":18.4536962609,"LABEL":"Transform Boundary","Shape_Length":18.45369626086759}},{"type":"Feature","id":33,"geometry":{"type":"LineString","coordinates":[[82.381,30.529],[82.33,30.595],[82.268,30.643],[82.241,30.657],[82.208,30.675],[82.085,30.727],[81.997,30.757],[81.888,30.757],[81.666,30.806],[81.553,30.848],[81.452,30.875],[81.279,30.979],[81.15,31.034],[81.105,31.067],[80.881,31.193],[80.755,31.251],[80.618,31.36],[80.528,31.421],[80.44,31.47],[80.385,31.514],[80.338,31.574],[80.3,31.64],[80.278,31.711],[80.201,31.851],[80.111,31.953],[80.009,32.04],[79.922,32.169],[79.886,32.249],[79.71,32.435],[79.56,32.614],[79.458,32.704],[79.272,32.907],[79.111,33.072],[79.019,33.165],[78.901,33.302],[78.786,33.42],[78.663,33.598],[78.6,33.73],[78.411,33.971]]},"properties":{"OBJECTID":33,"Shape_Leng":5.44270357353,"NAME":"Karakoram","Shape_Le_1":5.44270357379,"LABEL":"Transform Boundary","Shape_Length":5.4427035737948}},{"type":"Feature","id":34,"geometry":{"type":"LineString","coordinates":[[78.582,33.609],[78.405,33.781],[78.305,33.874],[78.264,33.932],[78.161,34.013],[78.096,34.112],[77.867,34.283],[77.818,34.339],[77.782,34.39],[77.696,34.521],[77.531,34.768],[77.292,35.089],[77.158,35.344],[76.97,35.538],[76.81,35.779],[76.669,35.899],[76.174,36.355],[75.692,36.837],[75.437,37.124],[75.39,37.305]]},"properties":{"OBJECTID":34,"Shape_Leng":4.93921909214,"NAME":"Karakoram","Shape_Le_1":4.93921909267,"LABEL":"Transform Boundary","Shape_Length":4.939219092674777}},{"type":"Feature","id":35,"geometry":{"type":"LineString","coordinates":[[75.532,39.896],[75.393,40.068],[75.214,40.233],[75.056,40.352],[74.904,40.438],[74.732,40.551],[74.633,40.577],[74.527,40.604],[74.448,40.623]]},"properties":{"OBJECTID":35,"Shape_Leng":1.33573852262,"NAME":"Talas Fergana","Shape_Le_1":1.33573852319,"LABEL":"Transform Boundary","Shape_Length":1.3357385231884218}},{"type":"Feature","id":36,"geometry":{"type":"LineString","coordinates":[[74.567,40.696],[74.388,40.756],[74.203,40.901],[74.018,41.066],[73.879,41.192],[73.721,41.311],[73.542,41.417],[73.443,41.476],[73.258,41.562],[73.112,41.635],[73,41.681],[72.881,41.701],[72.808,41.701],[72.65,41.655]]},"properties":{"OBJECTID":36,"Shape_Leng":2.22682516019,"NAME":"Talas Fergana","Shape_Le_1":2.2268251604,"LABEL":"Transform Boundary","Shape_Length":2.226825160396257}},{"type":"Feature","id":37,"geometry":{"type":"LineString","coordinates":[[72.899,41.733],[72.641,41.843],[72.071,42.023],[71.242,42.343],[70.868,42.468],[70.328,42.733],[69.946,42.929],[69.493,43.265],[69.071,43.561],[68.711,43.835],[68.686,43.843]]},"properties":{"OBJECTID":37,"Shape_Leng":4.74955962764,"NAME":"Talas Fergana","Shape_Le_1":4.74955962809,"LABEL":"Transform Boundary","Shape_Length":4.749559628085199}},{"type":"Feature","id":38,"geometry":{"type":"LineString","coordinates":[[74.382,39.518],[74.212,39.461],[74.061,39.419],[73.923,39.365],[73.778,39.365],[73.474,39.333],[73.336,39.335],[73.257,39.421],[73.2,39.503],[73.116,39.515],[73.023,39.515],[72.874,39.516],[72.811,39.52],[72.643,39.504],[72.392,39.476],[72.192,39.476],[72.017,39.476],[71.845,39.476],[71.693,39.404],[71.574,39.317],[71.442,39.257],[71.227,39.205],[70.919,39.149],[70.712,39.081],[70.448,39.057],[70.281,39.001],[70.101,38.89],[69.982,38.834],[69.974,38.831],[69.85,38.782],[69.739,38.671],[69.67,38.602],[69.527,38.435]]},"properties":{"OBJECTID":38,"Shape_Leng":5.26162472581,"NAME":" ","Shape_Le_1":5.26162472622,"LABEL":"Convergent Boundary","Shape_Length":5.261624726223858}},{"type":"Feature","id":39,"geometry":{"type":"LineString","coordinates":[[72.478,39.254],[72.347,39.244],[72.114,39.206],[71.945,39.168],[71.763,39.155],[71.572,39.149],[71.422,39.145],[71.211,39.082],[71.135,39.044],[70.991,38.973],[70.85,38.874],[70.652,38.791],[70.311,38.593],[70.145,38.443],[70.033,38.322],[69.963,38.223],[69.864,38.082],[69.746,37.846],[69.691,37.738],[69.656,37.645],[69.647,37.565],[69.624,37.454],[69.583,37.339],[69.548,37.243],[69.474,37.112],[69.382,37.048],[69.363,36.975]]},"properties":{"OBJECTID":39,"Shape_Leng":4.23510647102,"NAME":"Main Pamir Thrust","Shape_Le_1":4.23510647094,"LABEL":"Convergent Boundary","Shape_Length":4.235106470939904}},{"type":"Feature","id":42,"geometry":{"type":"LineString","coordinates":[[94.547,29.432],[94.468,29.374],[94.006,29.085],[93.815,29.003],[93.406,28.973],[93.102,28.999],[92.858,29.044],[92.625,29.07],[92.426,29.145],[92.235,29.19],[92.051,29.217],[91.882,29.22],[91.717,29.213],[91.454,29.235],[91.064,29.25],[90.801,29.262],[90.527,29.269],[90.264,29.228],[89.972,29.217],[89.547,29.299],[89.326,29.239],[89.045,29.198],[88.737,29.149],[88.508,29.138],[88.324,29.164],[88.102,29.217],[87.889,29.243],[87.641,29.247],[87.28,29.284],[87.067,29.28],[86.871,29.292],[86.624,29.326],[86.477,29.344],[86.237,29.356],[85.933,29.419],[85.73,29.442],[85.513,29.442],[85.284,29.442],[85.134,29.457],[85.017,29.461],[84.837,29.498],[84.672,29.581],[84.45,29.686],[84.304,29.757],[84.169,29.78],[84.053,29.817],[83.632,30.039],[83.542,30.114],[83.396,30.208],[83.238,30.298],[83.126,30.365],[83.114,30.37],[82.998,30.418],[82.84,30.459],[82.679,30.497],[82.506,30.519],[82.381,30.529]]},"properties":{"OBJECTID":42,"Shape_Leng":12.6116970189,"NAME":"Indo-Tsangpo Suture","Shape_Le_1":12.6116970194,"LABEL":"Convergent Boundary","Shape_Length":12.611697019417711}},{"type":"Feature","id":43,"geometry":{"type":"LineString","coordinates":[[102.679,33.803],[102.436,33.884],[102.131,33.951],[101.685,34.103],[101.318,34.25],[100.792,34.32],[100.19,34.474],[99.687,34.662],[99.446,34.887],[99.177,35.051],[98.781,35.198],[98.377,35.339],[97.595,35.541],[96.913,35.602],[96.039,35.753],[95.254,35.782],[94.215,35.734],[93.53,35.743],[92.697,35.855],[91.875,35.925],[91.561,35.974],[90.695,36.162],[90.486,36.211]]},"properties":{"OBJECTID":43,"Shape_Leng":12.5928872275,"NAME":"Kunlun Fault","Shape_Le_1":12.5928872282,"LABEL":"Transform Boundary","Shape_Length":12.592887228159558}},{"type":"Feature","id":44,"geometry":{"type":"LineString","coordinates":[]},"properties":{"OBJECTID":44,"Shape_Leng":0,"NAME":" ","Shape_Le_1":0,"LABEL":"Divergent Boundary","Shape_Length":0}},{"type":"Feature","id":45,"geometry":{"type":"LineString","coordinates":[[-177.391,-24.04],[-177.419,-24.105],[-177.448,-24.242],[-177.552,-24.72],[-177.657,-25.197],[-177.793,-25.976],[-178.017,-26.767],[-178.248,-27.377],[-178.482,-27.985],[-178.713,-28.693],[-178.966,-29.498],[-179.074,-29.792],[-179.226,-30.355],[-179.393,-30.997],[-179.515,-31.333],[-180,-32.226]]},"properties":{"OBJECTID":45,"Shape_Leng":8.06037828632,"NAME":" ","Shape_Le_1":8.06037828566,"LABEL":"Divergent Boundary","Shape_Length":8.627463111057718}},{"type":"Feature","id":46,"geometry":{"type":"LineString","coordinates":[[-174.567,-15.251],[-174.667,-15.37],[-174.731,-15.471],[-174.822,-15.616],[-174.866,-15.739],[-174.87,-15.88]]},"properties":{"OBJECTID":46,"Shape_Leng":1.98575222808,"NAME":" ","Shape_Le_1":1.98575222774,"LABEL":"Divergent Boundary","Shape_Length":0.7178879065719135}},{"type":"Feature","id":47,"geometry":{"type":"LineString","coordinates":[[-174.601,-15.936],[-174.568,-16.052],[-174.569,-16.201],[-174.576,-16.355],[-174.55,-16.597],[-174.535,-16.735],[-174.529,-16.874],[-174.523,-17.066],[-174.565,-17.101],[-174.599,-17.32],[-174.571,-17.36],[-174.597,-17.612],[-174.597,-17.612],[-174.56,-17.63],[-174.568,-17.842],[-174.659,-18.035],[-174.757,-18.231],[-174.87,-18.416],[-174.956,-18.605],[-175.035,-18.788],[-175.095,-19.002],[-175.155,-19.225],[-175.189,-19.459],[-175.21,-19.704]]},"properties":{"OBJECTID":47,"Shape_Leng":4.2545788023,"NAME":"Fonualei Rift","Shape_Le_1":4.25457880294,"LABEL":"Divergent Boundary","Shape_Length":3.9607517276612105}},{"type":"Feature","id":48,"geometry":{"type":"LineString","coordinates":[[-175.209,-19.698],[-175.21,-19.704],[-175.979,-19.387],[-176.549,-19.217]]},"properties":{"OBJECTID":48,"Shape_Leng":1.43247704069,"NAME":" ","Shape_Le_1":1.43247704063,"LABEL":"Transform Boundary","Shape_Length":1.4324770406326173}},{"type":"Feature","id":49,"geometry":{"type":"LineString","coordinates":[[-176.507,-19.23],[-176.549,-19.217],[-176.57,-18.975],[-176.587,-18.836],[-176.584,-18.768],[-176.551,-18.686],[-176.511,-18.6],[-176.44,-18.472],[-176.346,-18.307],[-176.33,-18.267],[-176.297,-18.131],[-176.304,-18.055],[-176.403,-17.873],[-176.462,-17.731],[-176.532,-17.574],[-176.625,-17.399],[-176.713,-17.219],[-176.82,-17.034],[-176.921,-16.877],[-177.028,-16.766]]},"properties":{"OBJECTID":49,"Shape_Leng":2.75989631829,"NAME":"Central Lau Spreading Center","Shape_Le_1":2.75989631823,"LABEL":"Divergent Boundary","Shape_Length":2.7598963182301564}},{"type":"Feature","id":50,"geometry":{"type":"LineString","coordinates":[[-177.028,-16.767],[-177.028,-16.766],[-177.068,-16.725],[-177.201,-16.575],[-177.364,-16.437],[-177.513,-16.32],[-177.678,-16.177],[-177.664,-16.107],[-177.634,-16.024],[-177.575,-15.961],[-177.493,-15.899],[-177.384,-15.807],[-177.248,-15.71],[-177.13,-15.559],[-177.108,-15.561]]},"properties":{"OBJECTID":50,"Shape_Leng":1.75242046294,"NAME":" ","Shape_Le_1":1.75242046277,"LABEL":"Divergent Boundary","Shape_Length":1.7524204627672078}},{"type":"Feature","id":51,"geometry":{"type":"LineString","coordinates":[[-177.143,-15.555],[-177.13,-15.559],[-177.108,-15.561],[-176.66,-15.604],[-176.526,-15.489],[-176.462,-15.419],[-176.387,-15.312],[-176.341,-15.184],[-176.331,-15.05],[-176.319,-14.904],[-176.339,-14.78],[-176.346,-14.639]]},"properties":{"OBJECTID":51,"Shape_Leng":1.5716763728,"NAME":"Northwest Lau Spreading Center","Shape_Le_1":1.57167637221,"LABEL":"Divergent Boundary","Shape_Length":1.5716763722080098}},{"type":"Feature","id":52,"geometry":{"type":"LineString","coordinates":[[-177.144,-15.555],[-177.186,-15.543],[-177.197,-15.54],[-177.691,-15.398],[-178.264,-15.325],[-178.812,-15.377],[-179.294,-15.491]]},"properties":{"OBJECTID":52,"Shape_Leng":2.19260547542,"NAME":" ","Shape_Le_1":2.19260547508,"LABEL":"Transform Boundary","Shape_Length":2.192605475083566}},{"type":"Feature","id":53,"geometry":{"type":"LineString","coordinates":[[-174.997,-14.366],[-175.309,-14.407],[-175.865,-14.478],[-176.346,-14.634],[-176.88,-14.671],[-177.415,-14.706],[-177.746,-14.646],[-178.24,-14.317],[-178.733,-13.986]]},"properties":{"OBJECTID":53,"Shape_Leng":3.97560743296,"NAME":" ","Shape_Le_1":3.97560743326,"LABEL":"Transform Boundary","Shape_Length":3.975607433258089}},{"type":"Feature","id":54,"geometry":{"type":"LineString","coordinates":[[-178.726,-13.991],[-178.733,-13.986],[-178.768,-14.23],[-178.888,-14.224],[-179.048,-14.928],[-179.288,-14.936],[-179.444,-15.527],[-179.739,-15.542]]},"properties":{"OBJECTID":54,"Shape_Leng":2.24378970696,"NAME":"Futuna Spreading Center","Shape_Le_1":2.24378970663,"LABEL":"Divergent Boundary","Shape_Length":2.2437897066272066}},{"type":"Feature","id":55,"geometry":{"type":"LineString","coordinates":[[-101.51,2.226],[-101.446,2.167],[-101.356,2.104],[-101.27,2.049],[-101.149,1.98],[-101.049,1.906],[-100.974,1.832],[-100.908,1.743]]},"properties":{"OBJECTID":55,"Shape_Leng":0.778966761767,"NAME":" ","Shape_Le_1":0.778966761803,"LABEL":"Convergent Boundary","Shape_Length":0.7789667618026044}},{"type":"Feature","id":56,"geometry":{"type":"LineString","coordinates":[[-100.909,1.742],[-100.973,1.679]]},"properties":{"OBJECTID":56,"Shape_Leng":0.0898069915131,"NAME":" ","Shape_Le_1":0.0898069912355,"LABEL":"Divergent Boundary","Shape_Length":0.08980699123550942}},{"type":"Feature","id":57,"geometry":{"type":"LineString","coordinates":[[-100.972,1.678],[-100.964,1.655]]},"properties":{"OBJECTID":57,"Shape_Leng":0.0240584379158,"NAME":" ","Shape_Le_1":0.0240584383152,"LABEL":"Transform Boundary","Shape_Length":0.02405843831524112}},{"type":"Feature","id":58,"geometry":{"type":"LineString","coordinates":[[-100.965,1.654],[-101.074,1.514]]},"properties":{"OBJECTID":58,"Shape_Leng":0.177552348584,"NAME":" ","Shape_Le_1":0.177552348498,"LABEL":"Divergent Boundary","Shape_Length":0.17755234849804155}},{"type":"Feature","id":59,"geometry":{"type":"LineString","coordinates":[[-101.073,1.513],[-101.047,1.471]]},"properties":{"OBJECTID":59,"Shape_Leng":0.0495392456237,"NAME":" ","Shape_Le_1":0.0495392464056,"LABEL":"Transform Boundary","Shape_Length":0.049539246405575825}},{"type":"Feature","id":60,"geometry":{"type":"LineString","coordinates":[[-101.048,1.47],[-101.153,1.386],[-101.195,1.423],[-101.315,1.35],[-101.315,1.35]]},"properties":{"OBJECTID":60,"Shape_Leng":0.331224043645,"NAME":" ","Shape_Le_1":0.331224043836,"LABEL":"Divergent Boundary","Shape_Length":0.3312240438356333}},{"type":"Feature","id":61,"geometry":{"type":"LineString","coordinates":[[-101.315,1.35],[-101.315,1.35],[-101.348,1.399]]},"properties":{"OBJECTID":61,"Shape_Leng":0.0590762219509,"NAME":" ","Shape_Le_1":0.0590762217446,"LABEL":"Transform Boundary","Shape_Length":0.05907622174463562}},{"type":"Feature","id":62,"geometry":{"type":"LineString","coordinates":[[-101.348,1.399],[-101.423,1.338],[-101.487,1.389],[-101.58,1.318]]},"properties":{"OBJECTID":62,"Shape_Leng":0.295514185985,"NAME":" ","Shape_Le_1":0.295514185504,"LABEL":"Divergent Boundary","Shape_Length":0.29551418550391495}},{"type":"Feature","id":63,"geometry":{"type":"LineString","coordinates":[[-101.58,1.318],[-101.59,1.331],[-101.644,1.404]]},"properties":{"OBJECTID":63,"Shape_Leng":0.107424621521,"NAME":" ","Shape_Le_1":0.107424621739,"LABEL":"Transform Boundary","Shape_Length":0.1074246217393365}},{"type":"Feature","id":64,"geometry":{"type":"LineString","coordinates":[[-101.645,1.403],[-101.825,1.334],[-101.959,1.269],[-102.082,1.206],[-102.181,1.134],[-102.181,1.134],[-102.181,1.132]]},"properties":{"OBJECTID":64,"Shape_Leng":0.604580107291,"NAME":" ","Shape_Le_1":0.604580107324,"LABEL":"Divergent Boundary","Shape_Length":0.6045801073243545}},{"type":"Feature","id":65,"geometry":{"type":"LineString","coordinates":[[-86.614,10.248],[-86.248,10.388],[-85.969,10.489],[-85.716,10.567],[-85.435,10.627],[-85.124,10.653],[-84.746,10.593],[-84.424,10.537],[-84.073,10.448],[-83.782,10.321],[-83.465,10.209],[-83.209,10.053],[-83.021,9.873],[-82.802,9.77],[-82.525,9.599],[-82.484,9.581]]},"properties":{"OBJECTID":65,"Shape_Leng":4.45061385813,"NAME":"Continental Collisional Boundary","Shape_Le_1":4.45061385815,"LABEL":"Convergent Boundary","Shape_Length":4.450613858150072}},{"type":"Feature","id":67,"geometry":{"type":"LineString","coordinates":[[-67.966,10.499],[-67.961,10.499],[-68.029,10.669],[-68.087,10.815],[-68.379,11.174],[-68.73,11.513],[-69.024,11.844],[-69.348,12.175],[-69.594,12.45],[-69.863,12.668],[-70.183,12.93],[-70.496,13.162],[-70.553,13.214]]},"properties":{"OBJECTID":67,"Shape_Leng":3.79730671434,"NAME":"Morrocoy Fault Zone","Shape_Le_1":3.79730671399,"LABEL":"Transform Boundary","Shape_Length":3.7973067139926013}},{"type":"Feature","id":69,"geometry":{"type":"LineString","coordinates":[[-77.135,9.08],[-77.087,8.75],[-77.057,8.453],[-77.149,8.19],[-77.331,8.105],[-77.534,8.012],[-77.707,7.829],[-78.013,7.637],[-78.205,7.523]]},"properties":{"OBJECTID":69,"Shape_Leng":2.65013845953,"NAME":" ","Shape_Le_1":2.65013845918,"LABEL":"Convergent Boundary","Shape_Length":2.170914203232031}},{"type":"Feature","id":70,"geometry":{"type":"LineString","coordinates":[[-78.205,7.523],[-78.228,7.51],[-78.646,7.337],[-78.751,7.329],[-78.949,7.32],[-78.972,7.319],[-78.982,7.319],[-79.24,7.301],[-79.47,7.228],[-79.658,7.184],[-79.846,7.16],[-80.096,7.101],[-80.25,7.133],[-80.363,7.221],[-80.539,7.335],[-80.687,7.415],[-80.784,7.358],[-80.894,7.294],[-81.038,7.222],[-81.163,7.172],[-81.342,7.099],[-81.487,7.055],[-81.584,7.039],[-81.741,7.061],[-81.889,6.978],[-81.944,6.95],[-82.09,6.967],[-82.125,7.008],[-82.202,7.041],[-82.273,7.129],[-82.338,7.251],[-82.492,7.296],[-82.617,7.307],[-82.66,7.289],[-82.66,7.264]]},"properties":{"OBJECTID":70,"Shape_Leng":4.89517362851,"NAME":"Southern Panama Fault Zone","Shape_Le_1":4.89517362811,"LABEL":"Transform Boundary","Shape_Length":4.895173628109506}},{"type":"Feature","id":71,"geometry":{"type":"LineString","coordinates":[[-67.97,10.521],[-67.961,10.499],[-67.966,10.499],[-68.131,10.511],[-68.35,10.535],[-68.507,10.502],[-68.67,10.455],[-68.976,10.299],[-69.14,10.196],[-69.297,10.121],[-69.511,9.976],[-69.696,9.797],[-69.875,9.582],[-70.081,9.388],[-70.358,9.139],[-70.514,9.014],[-70.727,8.876],[-70.925,8.807],[-71.081,8.661],[-71.208,8.571],[-71.456,8.453],[-71.696,8.342],[-71.795,8.195],[-71.915,8.105],[-72.091,7.903],[-72.246,7.819],[-72.437,7.7],[-72.359,7.568],[-72.064,7.323],[-72.071,7.198],[-72.05,7.03],[-71.889,6.681],[-71.903,6.465],[-71.924,6.262],[-72.079,6.046],[-72.149,5.788],[-72.198,5.537],[-72.353,5.264],[-72.633,5.118],[-72.773,4.936],[-72.92,4.741],[-73.13,4.413],[-73.326,4.308],[-73.592,4.168],[-73.78,3.979],[-73.815,3.819],[-73.927,3.56],[-74.101,3.42],[-74.345,3.294],[-74.589,3.022],[-74.875,2.791],[-75.21,2.498],[-75.433,2.281],[-75.774,1.932],[-75.989,1.618],[-76.254,1.506],[-76.574,1.276],[-76.922,1.101],[-77.332,0.899],[-77.462,0.791]]},"properties":{"OBJECTID":71,"Shape_Leng":15.1818021992,"NAME":"East Andean Fault","Shape_Le_1":15.1818022008,"LABEL":"Other","Shape_Length":15.181802200765974}},{"type":"Feature","id":72,"geometry":{"type":"LineString","coordinates":[[-77.462,0.791],[-77.707,0.586],[-78.005,0.148],[-78.193,-0.234],[-78.437,-0.748],[-78.667,-1.421],[-78.929,-1.994],[-79.225,-2.279],[-79.497,-2.472],[-79.851,-2.671]]},"properties":{"OBJECTID":72,"Shape_Leng":4.33546822107,"NAME":"Oriente Fault","Shape_Le_1":4.33546822057,"LABEL":"Other","Shape_Length":4.335468220574435}},{"type":"Feature","id":73,"geometry":{"type":"LineString","coordinates":[[-79.848,-2.67],[-80.206,-2.883],[-80.575,-3.074],[-80.977,-3.264],[-81.302,-3.268],[-81.599,-3.245],[-81.599,-3.245],[-81.61,-3.262]]},"properties":{"OBJECTID":73,"Shape_Leng":1.92042367221,"NAME":" ","Shape_Le_1":1.92042367179,"LABEL":"Other","Shape_Length":1.9204236717945853}},{"type":"Feature","id":77,"geometry":{"type":"LineString","coordinates":[[-64.596,-57.978],[-63.571,-58.359],[-62.571,-58.603],[-61.04,-59.011],[-59.705,-59.453],[-58.97,-59.728],[-58.223,-59.999],[-56.925,-60.565]]},"properties":{"OBJECTID":77,"Shape_Leng":8.10907259593,"NAME":"Shackleton Fracture Zone","Shape_Le_1":8.10907259499,"LABEL":"Transform Boundary","Shape_Length":8.109072594989454}},{"type":"Feature","id":78,"geometry":{"type":"LineString","coordinates":[[-56.898,-60.572],[-56.269,-60.742],[-55.81,-60.7],[-55.067,-60.763],[-54.309,-60.978],[-54.302,-61.45]]},"properties":{"OBJECTID":78,"Shape_Leng":3.11735827025,"NAME":" ","Shape_Le_1":3.11735827035,"LABEL":"Transform Boundary","Shape_Length":3.1173582703461697}},{"type":"Feature","id":79,"geometry":{"type":"LineString","coordinates":[[-56.955,-60.552],[-56.925,-60.565],[-57.494,-60.855],[-58.131,-60.962],[-58.891,-61.082],[-59.836,-61.177],[-60.65,-61.363],[-61.332,-61.543],[-62.203,-61.841],[-63.105,-62.11],[-63.969,-62.422]]},"properties":{"OBJECTID":79,"Shape_Leng":7.35756995581,"NAME":"South Shetland Trench","Shape_Le_1":7.35756995532,"LABEL":"Convergent Boundary","Shape_Length":7.357569955322366}},{"type":"Feature","id":80,"geometry":{"type":"LineString","coordinates":[[-63.965,-62.42],[-63.293,-62.827]]},"properties":{"OBJECTID":80,"Shape_Leng":0.784771112761,"NAME":" ","Shape_Le_1":0.78477111219,"LABEL":"Transform Boundary","Shape_Length":0.7847711121900217}},{"type":"Feature","id":81,"geometry":{"type":"LineString","coordinates":[[-29.552,-55.024],[-29.563,-55.022],[-29.708,-55.199],[-29.715,-55.204],[-29.815,-55.327],[-29.794,-55.501],[-29.773,-55.605],[-29.817,-55.684]]},"properties":{"OBJECTID":81,"Shape_Leng":0.778473730576,"NAME":" ","Shape_Le_1":0.778473729959,"LABEL":"Divergent Boundary","Shape_Length":0.7784737299593716}},{"type":"Feature","id":82,"geometry":{"type":"LineString","coordinates":[[-29.818,-55.684],[-30.316,-55.754]]},"properties":{"OBJECTID":82,"Shape_Leng":0.502606435388,"NAME":" ","Shape_Le_1":0.502606435682,"LABEL":"Transform Boundary","Shape_Length":0.5026064356816567}},{"type":"Feature","id":83,"geometry":{"type":"LineString","coordinates":[[-30.316,-55.756],[-30.326,-55.864],[-30.334,-55.949],[-30.332,-56.052],[-30.325,-56.135],[-30.334,-56.29],[-30.378,-56.443]]},"properties":{"OBJECTID":83,"Shape_Leng":0.694827420086,"NAME":" ","Shape_Le_1":0.694827419578,"LABEL":"Divergent Boundary","Shape_Length":0.6948274195780362}},{"type":"Feature","id":84,"geometry":{"type":"LineString","coordinates":[[-30.378,-56.443],[-30.721,-56.449]]},"properties":{"OBJECTID":84,"Shape_Leng":0.34305247412,"NAME":" ","Shape_Le_1":0.343052473481,"LABEL":"Transform Boundary","Shape_Length":0.3430524734813243}},{"type":"Feature","id":85,"geometry":{"type":"LineString","coordinates":[[-30.721,-56.451],[-30.727,-56.511],[-30.743,-56.57],[-30.743,-56.859]]},"properties":{"OBJECTID":85,"Shape_Leng":0.410446371423,"NAME":" ","Shape_Le_1":0.410446371779,"LABEL":"Divergent Boundary","Shape_Length":0.41044637177856674}},{"type":"Feature","id":86,"geometry":{"type":"LineString","coordinates":[[-30.738,-56.859],[-30.469,-56.851]]},"properties":{"OBJECTID":86,"Shape_Leng":0.2687769628,"NAME":" ","Shape_Le_1":0.268776963195,"LABEL":"Transform Boundary","Shape_Length":0.26877696319465577}},{"type":"Feature","id":87,"geometry":{"type":"LineString","coordinates":[[-30.476,-56.851],[-30.469,-56.851],[-30.38,-57.094]]},"properties":{"OBJECTID":87,"Shape_Leng":0.26582333379,"NAME":" ","Shape_Le_1":0.265823334799,"LABEL":"Divergent Boundary","Shape_Length":0.26582333479860004}},{"type":"Feature","id":88,"geometry":{"type":"LineString","coordinates":[[-30.355,-57.094],[-30.129,-57.095],[-30.127,-57.115]]},"properties":{"OBJECTID":88,"Shape_Leng":0.245836421545,"NAME":" ","Shape_Le_1":0.245836421896,"LABEL":"Transform Boundary","Shape_Length":0.24583642189569144}},{"type":"Feature","id":89,"geometry":{"type":"LineString","coordinates":[[-30.129,-57.095],[-30.069,-57.599]]},"properties":{"OBJECTID":89,"Shape_Leng":0.507558863581,"NAME":" ","Shape_Le_1":0.507558863546,"LABEL":"Divergent Boundary","Shape_Length":0.5075588635459384}},{"type":"Feature","id":90,"geometry":{"type":"LineString","coordinates":[[-30.059,-57.599],[-29.852,-57.598]]},"properties":{"OBJECTID":90,"Shape_Leng":0.207253765683,"NAME":" ","Shape_Le_1":0.207253765733,"LABEL":"Transform Boundary","Shape_Length":0.2072537657330405}},{"type":"Feature","id":91,"geometry":{"type":"LineString","coordinates":[[-29.852,-57.614],[-29.844,-58.262]]},"properties":{"OBJECTID":91,"Shape_Leng":0.647783946889,"NAME":" ","Shape_Le_1":0.647783946412,"LABEL":"Divergent Boundary","Shape_Length":0.6477839464120113}},{"type":"Feature","id":92,"geometry":{"type":"LineString","coordinates":[[-29.844,-58.241],[-29.844,-58.262],[-30.007,-58.272]]},"properties":{"OBJECTID":92,"Shape_Leng":0.184711953609,"NAME":" ","Shape_Le_1":0.184711953382,"LABEL":"Transform Boundary","Shape_Length":0.18471195338221813}},{"type":"Feature","id":93,"geometry":{"type":"LineString","coordinates":[[-29.974,-58.27],[-30.007,-58.272],[-29.951,-58.805]]},"properties":{"OBJECTID":93,"Shape_Leng":0.569290277758,"NAME":" ","Shape_Le_1":0.569290277925,"LABEL":"Divergent Boundary","Shape_Length":0.5692902779252994}},{"type":"Feature","id":94,"geometry":{"type":"LineString","coordinates":[[-29.952,-58.795],[-29.951,-58.805],[-29.563,-58.817]]},"properties":{"OBJECTID":94,"Shape_Leng":0.398456806013,"NAME":" ","Shape_Le_1":0.398456805169,"LABEL":"Transform Boundary","Shape_Length":0.39845680516919146}},{"type":"Feature","id":95,"geometry":{"type":"LineString","coordinates":[[-29.563,-58.849],[-29.555,-59.514]]},"properties":{"OBJECTID":95,"Shape_Leng":0.664677641359,"NAME":" ","Shape_Le_1":0.664677640926,"LABEL":"Divergent Boundary","Shape_Length":0.6646776409258074}},{"type":"Feature","id":96,"geometry":{"type":"LineString","coordinates":[[-29.555,-59.51],[-29.555,-59.514],[-30.108,-59.515]]},"properties":{"OBJECTID":96,"Shape_Leng":0.557138688949,"NAME":" ","Shape_Le_1":0.557138689075,"LABEL":"Transform Boundary","Shape_Length":0.5571386890746777}},{"type":"Feature","id":97,"geometry":{"type":"LineString","coordinates":[[-30.106,-59.526],[-30.031,-59.937],[-29.881,-60.174],[-29.598,-60.435]]},"properties":{"OBJECTID":97,"Shape_Leng":1.08299129561,"NAME":" ","Shape_Le_1":1.08299129641,"LABEL":"Divergent Boundary","Shape_Length":1.0829912964124633}},{"type":"Feature","id":98,"geometry":{"type":"LineString","coordinates":[[-29.573,-60.436],[-28.677,-60.459],[-27.705,-60.467]]},"properties":{"OBJECTID":98,"Shape_Leng":1.868266501,"NAME":" ","Shape_Le_1":1.86826650109,"LABEL":"Transform Boundary","Shape_Length":1.8682665010904107}},{"type":"Feature","id":99,"geometry":{"type":"LineString","coordinates":[[-27.694,-60.484],[-27.66,-60.605]]},"properties":{"OBJECTID":99,"Shape_Leng":0.126594013185,"NAME":" ","Shape_Le_1":0.126594013132,"LABEL":"Divergent Boundary","Shape_Length":0.1265940131317637}},{"type":"Feature","id":100,"geometry":{"type":"LineString","coordinates":[[40.917,39.128],[40.449,39.392],[39.892,39.703],[39.268,39.909],[38.795,40.009],[38.021,40.269],[37.062,40.6],[36.169,40.849],[35.527,41.002],[34.832,41.123],[34.286,41.159],[33.405,41.023],[32.392,40.86],[31.482,40.679],[31.116,40.615],[30.774,40.601],[30.007,40.768],[29.03,40.686],[28.724,40.668],[27.987,40.618],[27.568,40.64],[27.256,40.789],[26.597,40.553],[26.01,40.325],[25.497,40.179],[25.416,40.156],[25.366,40.149]]},"properties":{"OBJECTID":100,"Shape_Leng":16.1184960002,"NAME":"North Anatolian Fault","Shape_Le_1":16.1184960008,"LABEL":"Transform Boundary","Shape_Length":16.118496000821683}},{"type":"Feature","id":101,"geometry":{"type":"LineString","coordinates":[[43.567,11.991],[42.841,11.795],[42.033,11.577],[41.442,11.317],[41.117,10.732],[40.792,10.146],[40.449,9.796],[40.107,9.446],[39.79,9.071],[39.473,8.696],[39.157,8.296],[38.841,7.895],[38.477,7.447],[38.115,6.998],[37.849,6.477],[37.583,5.956],[36.914,5.958],[36.601,5.484],[36.29,5.009],[35.782,5.099],[35.275,5.188],[34.767,5.277],[34.26,5.366],[33.752,5.455],[33.244,5.543],[32.736,5.63],[32.227,5.717],[31.753,5.097],[31.279,4.477],[30.471,4.235],[30.475,3.524],[30.478,2.812],[31.049,2.648],[31.62,2.483],[31.122,1.96],[30.625,1.437],[30.246,0.749],[29.867,0.06],[29.63,-0.626],[29.392,-1.313],[29.13,-1.809],[28.868,-2.306],[28.91,-3.134],[28.953,-3.962],[29.28,-4.557],[29.608,-5.151],[29.604,-5.625],[29.6,-6.099],[30.046,-6.791],[30.493,-7.483],[31.042,-7.631],[31.592,-7.778],[32.117,-8.162],[32.643,-8.546],[33.099,-8.643],[33.556,-8.741],[33.818,-9.598],[34.081,-10.455],[34.709,-11.027],[34.441,-11.717],[34.172,-12.406],[34.071,-13.167],[34.461,-13.859],[34.852,-14.549],[34.729,-15.191],[34.604,-15.834],[34.901,-16.334],[35.199,-16.833],[35.2,-17.404],[35.2,-17.976],[34.599,-18.356],[34.272,-18.688],[33.943,-19.019],[33.613,-19.35],[33.282,-19.681],[33.196,-20.512],[33.11,-21.344]]},"properties":{"OBJECTID":101,"Shape_Leng":48.7422030423,"NAME":"East African Rift System","Shape_Le_1":48.7422030418,"LABEL":"Divergent Boundary","Shape_Length":48.742203041836305}},{"type":"Feature","id":102,"geometry":{"type":"LineString","coordinates":[[33.044,-21.365],[32.636,-21.492],[32.16,-21.639],[31.684,-21.784],[31.207,-21.928],[30.729,-22.071],[30.25,-22.212],[29.77,-22.352],[29.29,-22.491],[28.844,-22.971],[28.396,-23.45],[27.944,-23.928],[27.489,-24.404],[27.592,-24.847],[27.696,-25.291],[27.8,-25.733],[27.905,-26.177],[27.253,-26.474],[26.596,-26.768],[26.595,-27.477],[26.594,-28.187],[27.179,-28.625],[27.769,-29.06],[28.054,-29.454],[28.341,-29.849],[28.922,-30.635],[29.656,-31.236],[30.4,-31.832],[31.153,-32.425],[31.916,-33.012],[32.69,-33.595],[33.474,-34.173],[34.269,-34.746],[35.075,-35.314],[35.892,-35.876],[36.721,-36.433],[37.562,-36.984]]},"properties":{"OBJECTID":102,"Shape_Leng":25.3670643033,"NAME":" ","Shape_Le_1":25.3670643036,"LABEL":"Convergent Boundary","Shape_Length":25.367064303558}},{"type":"Feature","id":103,"geometry":{"type":"LineString","coordinates":[[145.05,65.248],[146.595,64.733],[148.191,64.162],[149.721,63.574],[151.189,62.971],[152.596,62.353],[153.946,61.721],[157.108,60.973],[161.167,60.499],[164.382,59.814],[166.227,59.392]]},"properties":{"OBJECTID":103,"Shape_Leng":22.0920572791,"NAME":" ","Shape_Le_1":22.0920572793,"LABEL":"Transform Boundary","Shape_Length":22.092057279255886}},{"type":"Feature","id":104,"geometry":{"type":"LineString","coordinates":[[166.172,59.345],[164.93,58.897],[164.518,58.487],[164.115,58.076],[163.721,57.664],[163.336,57.251],[162.96,56.836],[162.592,56.42],[163.34,55.817],[164.064,55.211]]},"properties":{"OBJECTID":104,"Shape_Leng":6.63214219355,"NAME":" ","Shape_Le_1":6.63214219472,"LABEL":"Convergent Boundary","Shape_Length":6.632142194717055}},{"type":"Feature","id":105,"geometry":{"type":"LineString","coordinates":[[142.383,54.096],[142.409,54.035],[141.278,54.074],[140.145,54.103],[139.211,54.333],[137.918,54.588],[136.61,54.83],[135.545,54.996]]},"properties":{"OBJECTID":105,"Shape_Leng":7.01937864158,"NAME":" ","Shape_Le_1":7.01937864108,"LABEL":"Transform Boundary","Shape_Length":7.019378641081933}},{"type":"Feature","id":106,"geometry":{"type":"LineString","coordinates":[[135.339,55.029],[135.138,55.06],[133.65,55.273],[132.674,55.491],[131.688,55.702],[130.747,55.861],[129.798,56.013],[128.393,56.401],[126.96,56.774],[125.499,57.13],[124.573,57.178],[123.645,57.219],[122.978,57.244]]},"properties":{"OBJECTID":106,"Shape_Leng":12.5960291407,"NAME":"Stanovoy Fault System","Shape_Le_1":12.5960291404,"LABEL":"Transform Boundary","Shape_Length":12.596029140448053}},{"type":"Feature","id":107,"geometry":{"type":"LineString","coordinates":[[122.904,57.247],[122.715,57.254],[121.784,57.281],[120.851,57.302],[119.918,57.316],[119.548,57.248]]},"properties":{"OBJECTID":107,"Shape_Leng":3.36380560835,"NAME":" ","Shape_Le_1":3.36380560826,"LABEL":"Divergent Boundary","Shape_Length":3.363805608263348}},{"type":"Feature","id":108,"geometry":{"type":"LineString","coordinates":[[119.429,57.226],[119.021,57.151],[118.133,56.98],[117.253,56.802],[116.382,56.618],[115.015,56.526],[113.656,56.418],[112.305,56.295],[111.888,56.273]]},"properties":{"OBJECTID":108,"Shape_Leng":7.61503705822,"NAME":" ","Shape_Le_1":7.61503705773,"LABEL":"Transform Boundary","Shape_Length":7.615037057726278}},{"type":"Feature","id":109,"geometry":{"type":"LineString","coordinates":[[111.884,56.272],[110.924,56.221],[109.758,55.762],[109.375,55.331],[109,54.899],[108.691,54.15],[108.393,53.401],[107.706,53.081],[107.029,52.758],[106.362,52.431],[105.705,52.099],[105.058,51.765],[104.42,51.427]]},"properties":{"OBJECTID":109,"Shape_Leng":9.41656180964,"NAME":"Baikal Rift","Shape_Le_1":9.41656181003,"LABEL":"Divergent Boundary","Shape_Length":9.416561810028862}},{"type":"Feature","id":110,"geometry":{"type":"LineString","coordinates":[[122.732,42.188],[123.51,41.53],[124.272,40.867],[125.019,40.2],[125.199,39.742],[125.376,39.283],[125.551,38.824],[125.723,38.365],[125.914,37.541],[126.101,36.718],[126.115,36.169],[126.128,35.621],[126.196,34.936],[126.263,34.252],[125.521,33.563],[124.791,32.87],[124.072,32.173],[123.364,31.471],[123.217,31.479]]},"properties":{"OBJECTID":110,"Shape_Leng":38.9911006949,"NAME":" ","Shape_Le_1":38.9911006945,"LABEL":"Divergent Boundary","Shape_Length":13.32331105711548}},{"type":"Feature","id":111,"geometry":{"type":"LineString","coordinates":[[129.438,31.789],[129.442,31.793],[129.768,32.042],[130.185,32.019],[130.835,31.982],[131.284,31.877],[131.717,31.761],[132.03,31.484],[132.269,31.257],[132.437,31.114],[132.771,30.751]]},"properties":{"OBJECTID":111,"Shape_Leng":3.85551900353,"NAME":" ","Shape_Le_1":3.85551900264,"LABEL":"Divergent Boundary","Shape_Length":3.855519002639774}},{"type":"Feature","id":112,"geometry":{"type":"LineString","coordinates":[[142.275,23.029],[142.886,23.701],[143.42,24.28],[143.514,24.394]]},"properties":{"OBJECTID":112,"Shape_Leng":1.84409272853,"NAME":" ","Shape_Le_1":1.84409272814,"LABEL":"Transform Boundary","Shape_Length":1.8440927281434192}},{"type":"Feature","id":113,"geometry":{"type":"LineString","coordinates":[[144.082,14.639],[143.976,14.087],[143.942,13.811],[143.903,13.623],[143.871,13.541],[143.771,13.268],[143.662,13.058],[143.51,12.822],[143.403,12.695],[143.239,12.478],[143.143,12.265],[143.106,12.03],[143.086,11.828],[143.116,11.467]]},"properties":{"OBJECTID":113,"Shape_Leng":13.5351339485,"NAME":"Mariana Trough","Shape_Le_1":13.5351339483,"LABEL":"Divergent Boundary","Shape_Length":3.4030276762917744}},{"type":"Feature","id":114,"geometry":{"type":"LineString","coordinates":[[120.346,21.902],[119.948,22.018],[119.618,22.269],[118.958,22.003],[118.484,22.107],[118.045,21.498],[117.864,20.72],[117.504,20.33],[117.145,19.939],[116.319,19.815],[115.494,19.687],[114.926,19.34],[114.419,18.826],[114,18.438]]},"properties":{"OBJECTID":114,"Shape_Leng":8.26641850708,"NAME":" ","Shape_Le_1":8.26641850718,"LABEL":"Other","Shape_Length":8.266418507184689}},{"type":"Feature","id":115,"geometry":{"type":"LineString","coordinates":[[113.997,18.437],[113.313,18.28],[112.628,18.121],[112.098,18.038],[111.569,17.955],[111.04,17.87],[110.512,17.783],[109.573,17.785],[108.634,17.784],[107.695,17.777],[106.756,17.766],[105.817,17.75],[104.878,17.73],[104.312,17.709],[103.746,17.685],[103.18,17.66],[102.615,17.633],[102.032,17.35],[101.451,17.066],[101.141,16.575],[100.832,16.084],[100.297,15.462],[99.766,14.838],[99.21,14.446],[98.3,14.434],[97.39,14.419],[96.48,14.4]]},"properties":{"OBJECTID":115,"Shape_Leng":18.9539788184,"NAME":" ","Shape_Le_1":18.9539788182,"LABEL":"Other","Shape_Length":18.9539788181652}},{"type":"Feature","id":116,"geometry":{"type":"LineString","coordinates":[[96.496,14.412],[96.714,15.721],[96.859,16.812],[96.714,17.684],[96.569,18.702],[96.463,19.258]]},"properties":{"OBJECTID":116,"Shape_Leng":4.90582050014,"NAME":"Sagaing Fault","Shape_Le_1":4.90582050016,"LABEL":"Transform Boundary","Shape_Length":4.905820500161882}},{"type":"Feature","id":117,"geometry":{"type":"LineString","coordinates":[[96.48,14.4],[96.503,14.129],[95.857,13.783],[95.505,12.918],[95.155,12.053],[94.807,11.188],[94.415,10.679],[94.024,10.17]]},"properties":{"OBJECTID":117,"Shape_Leng":5.08847700736,"NAME":" ","Shape_Le_1":5.08847700791,"LABEL":"Divergent Boundary","Shape_Length":5.088477007907461}},{"type":"Feature","id":118,"geometry":{"type":"LineString","coordinates":[[94.045,10.121],[94.216,9.717],[94.415,9.27]]},"properties":{"OBJECTID":118,"Shape_Leng":0.928461363913,"NAME":" ","Shape_Le_1":0.928461364101,"LABEL":"Transform Boundary","Shape_Length":0.9284613641007934}},{"type":"Feature","id":119,"geometry":{"type":"LineString","coordinates":[[94.415,9.27],[93.986,9.019]]},"properties":{"OBJECTID":119,"Shape_Leng":0.497033198086,"NAME":" ","Shape_Le_1":0.49703319809,"LABEL":"Divergent Boundary","Shape_Length":0.4970331980896164}},{"type":"Feature","id":120,"geometry":{"type":"LineString","coordinates":[[93.986,9.019],[94.171,8.686],[94.429,8.312],[94.775,7.847]]},"properties":{"OBJECTID":120,"Shape_Leng":1.41489917857,"NAME":" ","Shape_Le_1":1.41489917914,"LABEL":"Transform Boundary","Shape_Length":1.4148991791357202}},{"type":"Feature","id":121,"geometry":{"type":"LineString","coordinates":[[94.775,7.847],[94.46,7.603]]},"properties":{"OBJECTID":121,"Shape_Leng":0.398448240051,"NAME":" ","Shape_Le_1":0.398448240284,"LABEL":"Divergent Boundary","Shape_Length":0.39844824028442616}},{"type":"Feature","id":122,"geometry":{"type":"LineString","coordinates":[[94.472,7.59],[94.883,7.139]]},"properties":{"OBJECTID":122,"Shape_Leng":0.6102789949,"NAME":" ","Shape_Le_1":0.610278995075,"LABEL":"Transform Boundary","Shape_Length":0.6102789950750863}},{"type":"Feature","id":123,"geometry":{"type":"LineString","coordinates":[[94.851,7.114],[94.498,6.837]]},"properties":{"OBJECTID":123,"Shape_Leng":0.449108845987,"NAME":" ","Shape_Le_1":0.449108846015,"LABEL":"Divergent Boundary","Shape_Length":0.44910884601538886}},{"type":"Feature","id":124,"geometry":{"type":"LineString","coordinates":[[96.567,4.644],[96.601,3.772],[96.697,2.979],[96.783,2.185],[96.743,1.763],[96.579,1.636]]},"properties":{"OBJECTID":124,"Shape_Leng":3.10157288004,"NAME":" ","Shape_Le_1":3.1015728802,"LABEL":"Transform Boundary","Shape_Length":3.1015728802037437}},{"type":"Feature","id":125,"geometry":{"type":"LineString","coordinates":[[94.509,6.809],[94.95,6.259],[95.435,5.715],[96.013,5.114],[96.567,4.644],[97.507,3.857],[98.021,3.182],[98.226,2.523]]},"properties":{"OBJECTID":125,"Shape_Leng":5.75939631608,"NAME":"Sumatra Fault System","Shape_Le_1":5.75939631631,"LABEL":"Transform Boundary","Shape_Length":5.759396316305977}},{"type":"Feature","id":126,"geometry":{"type":"LineString","coordinates":[]},"properties":{"OBJECTID":126,"Shape_Leng":0,"NAME":"Timor Trough","Shape_Le_1":0,"LABEL":"Convergent Boundary","Shape_Length":0}},{"type":"Feature","id":127,"geometry":{"type":"LineString","coordinates":[[120.572,-8.007],[120.543,-7.729],[120.546,-6.968],[120.62,-6.122],[120.516,-5.276],[120.341,-4.64]]},"properties":{"OBJECTID":127,"Shape_Leng":3.40131237019,"NAME":" ","Shape_Le_1":3.40131236986,"LABEL":"Transform Boundary","Shape_Length":3.401312369856612}},{"type":"Feature","id":128,"geometry":{"type":"LineString","coordinates":[[120.341,-4.64],[119.953,-4.303],[119.565,-3.966],[118.823,-3.61],[118.578,-3.255]]},"properties":{"OBJECTID":128,"Shape_Leng":2.28215602658,"NAME":" ","Shape_Le_1":2.28215602607,"LABEL":"Transform Boundary","Shape_Length":2.282156026067258}},{"type":"Feature","id":129,"geometry":{"type":"LineString","coordinates":[[119.474,-0.085],[119.296,-0.68],[119.045,-1.491],[118.884,-1.95],[118.723,-2.408],[118.578,-3.255]]},"properties":{"OBJECTID":129,"Shape_Leng":3.30103492023,"NAME":" ","Shape_Le_1":3.30103492011,"LABEL":"Convergent Boundary","Shape_Length":3.3010349201084406}},{"type":"Feature","id":130,"geometry":{"type":"LineString","coordinates":[[119.475,-0.081],[119.249,0.714],[119.306,1.577],[119.696,2.033]]},"properties":{"OBJECTID":130,"Shape_Leng":2.29140958159,"NAME":" ","Shape_Le_1":2.29140958197,"LABEL":"Other","Shape_Length":2.291409581966945}},{"type":"Feature","id":131,"geometry":{"type":"LineString","coordinates":[[123.43,2.006],[123.448,1.812],[123.535,1.354],[123.746,0.843],[124.01,0.437],[124.416,0.013],[124.857,-0.269],[125.263,-0.446],[125.616,-0.128],[125.969,0.19],[125.97,0.193]]},"properties":{"OBJECTID":131,"Shape_Leng":4.20460625032,"NAME":" ","Shape_Le_1":4.20460625046,"LABEL":"Other","Shape_Length":4.20460625045849}},{"type":"Feature","id":132,"geometry":{"type":"LineString","coordinates":[[126.872,2.346],[126.426,1.706],[126.144,1.001],[125.969,0.191]]},"properties":{"OBJECTID":132,"Shape_Leng":2.36786902583,"NAME":" ","Shape_Le_1":2.36786902602,"LABEL":"Convergent Boundary","Shape_Length":2.3678690260243265}},{"type":"Feature","id":133,"geometry":{"type":"LineString","coordinates":[[126.876,2.343],[128.091,2.287],[128.134,2.131],[128.187,1.974],[128.752,1.623],[129.134,1.139]]},"properties":{"OBJECTID":133,"Shape_Leng":2.82591584687,"NAME":" ","Shape_Le_1":2.82591584706,"LABEL":"Other","Shape_Length":2.8259158470645067}},{"type":"Feature","id":134,"geometry":{"type":"LineString","coordinates":[[119.535,-0.192],[119.896,-0.859],[120.388,-1.461],[120.811,-1.71],[121.234,-1.959],[121.728,-2.154],[122.223,-2.35],[122.78,-2.58]]},"properties":{"OBJECTID":134,"Shape_Leng":4.18389316455,"NAME":"Matano Fault","Shape_Le_1":4.18389316458,"LABEL":"Other","Shape_Length":4.1838931645762845}},{"type":"Feature","id":135,"geometry":{"type":"LineString","coordinates":[[123.522,-4.589],[123.458,-4.576],[123.706,-3.941],[123.672,-3.094],[123.424,-2.846],[122.823,-2.598],[122.772,-2.579]]},"properties":{"OBJECTID":135,"Shape_Leng":2.64960570827,"NAME":"Tolo Thrust","Shape_Le_1":2.64960570856,"LABEL":"Convergent Boundary","Shape_Length":2.6496057085596973}},{"type":"Feature","id":136,"geometry":{"type":"LineString","coordinates":[[123.522,-4.589],[124.06,-4.701],[124.662,-4.824],[125.282,-4.789],[125.901,-4.754],[126.432,-4.471],[126.963,-4.188],[127.325,-3.719],[127.51,-3.163],[127.667,-2.447],[127.666,-1.773]]},"properties":{"OBJECTID":136,"Shape_Leng":6.19381155169,"NAME":"Banda Ridges","Shape_Le_1":6.19381155161,"LABEL":"Other","Shape_Length":6.193811551608612}},{"type":"Feature","id":137,"geometry":{"type":"LineString","coordinates":[[133.258,-4.6],[132.717,-4.44],[132.316,-3.935],[132.293,-3.906],[132.373,-3.533]]},"properties":{"OBJECTID":137,"Shape_Leng":1.62757766299,"NAME":" ","Shape_Le_1":1.62757766296,"LABEL":"Convergent Boundary","Shape_Length":1.627577662964145}},{"type":"Feature","id":138,"geometry":{"type":"LineString","coordinates":[[132.501,0.018],[132.373,0.034],[131.738,0.15],[131.102,0.266],[130.546,0.475],[129.989,0.684],[129.197,1.059],[129.136,1.132]]},"properties":{"OBJECTID":138,"Shape_Leng":3.58108141014,"NAME":"Manokwari Trough","Shape_Le_1":3.58108141001,"LABEL":"Convergent Boundary","Shape_Length":3.581081410007387}},{"type":"Feature","id":139,"geometry":{"type":"LineString","coordinates":[[132.503,0.018],[132.515,0.017],[132.824,-0.043],[133.327,-0.146],[133.426,-0.111],[133.463,-0.066]]},"properties":{"OBJECTID":139,"Shape_Leng":1.00306241847,"NAME":" ","Shape_Le_1":1.00306241907,"LABEL":"Convergent Boundary","Shape_Length":1.0030624190681638}},{"type":"Feature","id":140,"geometry":{"type":"LineString","coordinates":[[132.502,-6.904],[132.606,-6.78],[132.689,-6.681],[133.188,-6.515],[133.686,-6.348],[133.982,-5.641],[133.449,-5.344],[133.906,-4.812],[134.488,-4.437],[134.944,-4.304]]},"properties":{"OBJECTID":140,"Shape_Leng":4.58700470357,"NAME":" ","Shape_Le_1":4.58700470398,"LABEL":"Other","Shape_Length":4.587004703976507}},{"type":"Feature","id":141,"geometry":{"type":"LineString","coordinates":[[134.939,-4.306],[134.944,-4.304],[134.966,-4.298],[135.459,-4.218],[136.167,-4.177],[136.672,-4.199],[137.177,-4.221],[138.01,-4.337],[138.484,-4.442],[138.959,-4.548],[139.731,-4.751],[140.264,-4.931],[140.732,-5.088],[140.806,-5.105]]},"properties":{"OBJECTID":141,"Shape_Leng":5.99123856552,"NAME":" ","Shape_Le_1":5.99123856564,"LABEL":"Convergent Boundary","Shape_Length":5.991238565637276}},{"type":"Feature","id":142,"geometry":{"type":"LineString","coordinates":[[140.811,-5.12],[140.847,-5.145],[141.483,-5.727],[142.231,-5.986],[142.956,-6.295],[143.569,-6.558],[144.136,-6.813],[144.74,-7.023],[145.249,-7.374],[145.666,-7.661],[146.398,-8.103],[146.918,-8.41]]},"properties":{"OBJECTID":142,"Shape_Leng":6.9971009428,"NAME":"New Guinea Highlands Fold and Thrust Belt","Shape_Le_1":6.99710094267,"LABEL":"Convergent Boundary","Shape_Length":6.9971009426716835}},{"type":"Feature","id":143,"geometry":{"type":"LineString","coordinates":[[152.223,-10.039],[152.413,-10.047],[152.547,-10.056],[152.651,-10.078],[152.849,-10.088]]},"properties":{"OBJECTID":143,"Shape_Leng":7.24913458959,"NAME":"Woodlark Basin Spreading System","Shape_Le_1":7.24913458911,"LABEL":"Divergent Boundary","Shape_Length":0.629024067696311}},{"type":"Feature","id":144,"geometry":{"type":"LineString","coordinates":[[149.27,-0.652],[148.913,-0.457],[148.724,-0.392],[148.344,-0.409],[147.859,-0.426],[147.354,-0.275],[147.059,-0.294],[146.595,-0.29],[145.919,-0.349],[145.497,-0.473],[145.033,-0.534],[144.357,-0.742],[143.808,-0.951],[143.26,-1.16],[142.922,-1.454],[142.626,-1.916],[142.485,-2.256]]},"properties":{"OBJECTID":144,"Shape_Leng":7.59164034405,"NAME":"Manus Trough","Shape_Le_1":7.59164034395,"LABEL":"Convergent Boundary","Shape_Length":7.591640343949667}},{"type":"Feature","id":145,"geometry":{"type":"LineString","coordinates":[[138.432,9.352],[139.192,9.065],[139.886,8.866],[140.579,8.666],[141.048,8.393],[141.517,8.118],[142.262,7.611],[142.666,7.388],[143.07,7.166],[143.558,6.805],[144.026,6.677],[144.664,6.611],[145.067,6.503],[145.471,6.353],[146.001,6.16],[146.382,5.883],[146.73,5.511],[147.078,5.138],[147.425,4.765],[147.772,4.393],[148.191,3.776],[148.694,3.137],[148.668,2.629],[148.684,2.058],[148.7,1.487],[148.863,0.937],[149.112,0.406],[149.191,-0.143],[149.251,-0.397],[149.27,-0.65]]},"properties":{"OBJECTID":145,"Shape_Leng":16.2594830238,"NAME":" ","Shape_Le_1":16.2594830243,"LABEL":"Transform Boundary","Shape_Length":16.25948302431057}},{"type":"Feature","id":146,"geometry":{"type":"LineString","coordinates":[[154.926,-7.29],[154.73,-6.858],[154.533,-6.423],[154.545,-5.901],[154.592,-5.581],[154.978,-5.24],[154.992,-4.887],[154.955,-4.55],[154.7,-4.283],[154.359,-3.948],[154.256,-3.612],[154.035,-3.327],[153.882,-3.041],[153.711,-2.688],[153.542,-2.604],[153.39,-2.436],[153.119,-2.2],[152.916,-2.15],[152.578,-2.134],[152.155,-1.865],[151.816,-1.646],[151.427,-1.46],[151.089,-1.308],[150.717,-1.224],[150.344,-1.123],[150.023,-1.021],[149.769,-1.005],[149.481,-0.818],[149.27,-0.65],[149.256,-0.47]]},"properties":{"OBJECTID":146,"Shape_Leng":10.4621574116,"NAME":"Kilinailau Trench","Shape_Le_1":10.4621574118,"LABEL":"Convergent Boundary","Shape_Length":10.462157411814438}},{"type":"Feature","id":147,"geometry":{"type":"LineString","coordinates":[[153.27,-9.178],[153.255,-9.186],[153.237,-8.89],[153.17,-8.783],[153.108,-8.684],[152.959,-8.544],[152.685,-8.388],[152.411,-8.26],[152.062,-8.104],[151.68,-7.955],[151.307,-7.852],[150.917,-7.757],[150.555,-7.687],[150.173,-7.629],[149.866,-7.612],[149.609,-7.624],[149.334,-7.665],[149.148,-7.665],[148.944,-7.607],[148.733,-7.475],[148.587,-7.395],[148.587,-7.395],[148.598,-7.39]]},"properties":{"OBJECTID":147,"Shape_Leng":5.38301880341,"NAME":"Trobriand Trough","Shape_Le_1":5.38301880245,"LABEL":"Convergent Boundary","Shape_Length":5.383018802446944}},{"type":"Feature","id":148,"geometry":{"type":"LineString","coordinates":[[153.255,-9.188],[153.368,-9.13],[153.697,-8.966],[154.087,-8.633],[154.481,-8.296],[154.872,-7.962],[155.262,-7.629],[155.38,-7.543],[155.443,-7.489]]},"properties":{"OBJECTID":148,"Shape_Leng":2.78158945629,"NAME":" ","Shape_Le_1":2.78158945602,"LABEL":"Transform Boundary","Shape_Length":2.7815894560231498}},{"type":"Feature","id":149,"geometry":{"type":"LineString","coordinates":[[180,-32.299],[179.657,-33.019],[179.345,-33.602],[178.996,-34.246],[178.681,-34.786],[178.403,-35.161],[177.89,-35.917],[177.507,-36.461],[177.049,-37.102],[176.781,-37.47],[176.77,-37.485],[176.576,-37.782]]},"properties":{"OBJECTID":149,"Shape_Leng":6.16916974226,"NAME":" ","Shape_Le_1":6.16916974259,"LABEL":"Divergent Boundary","Shape_Length":6.477892463310515}},{"type":"Feature","id":150,"geometry":{"type":"LineString","coordinates":[[176.552,-37.82],[176.509,-37.885],[176.241,-38.287],[175.995,-38.674],[175.932,-38.762],[175.609,-39.23],[176.074,-40.046],[175.868,-40.311],[175.537,-40.598],[175.324,-40.791],[175.012,-40.979],[174.632,-41.157],[174.763,-41.566],[174.945,-41.757],[175.191,-41.89],[175.329,-42.087]]},"properties":{"OBJECTID":150,"Shape_Leng":5.69420005557,"NAME":" ","Shape_Le_1":5.69420005456,"LABEL":"Convergent Boundary","Shape_Length":5.694200054560266}},{"type":"Feature","id":151,"geometry":{"type":"LineString","coordinates":[[166.264,-13.765],[167.157,-13.649],[168.159,-13.515],[168.596,-13.514],[168.577,-13.602],[168.792,-13.63],[169.026,-13.639],[169.234,-13.651],[169.231,-13.8],[169.456,-13.811],[169.622,-13.808],[169.739,-13.824],[169.739,-13.954],[170.15,-13.974],[170.638,-13.942],[170.642,-14.088],[170.945,-14.093],[171.181,-14.083],[171.295,-14.066],[171.296,-13.793],[171.619,-13.75],[171.972,-13.678],[172.163,-13.569],[172.3,-13.481],[172.434,-13.435],[172.571,-13.411],[172.62,-13.419]]},"properties":{"OBJECTID":151,"Shape_Leng":7.26003210825,"NAME":"Hazel Holmes Extensional Zone","Shape_Le_1":7.26003210914,"LABEL":"Divergent Boundary","Shape_Length":7.260032109135751}},{"type":"Feature","id":152,"geometry":{"type":"LineString","coordinates":[[176.021,-13.643],[176.256,-13.672],[176.618,-13.731],[176.966,-13.853],[177.167,-13.948],[177.417,-14.055],[178.029,-14.309],[178.469,-14.501],[179.012,-14.784],[179.389,-14.975],[179.648,-15.132],[179.755,-15.197]]},"properties":{"OBJECTID":152,"Shape_Leng":7.78494959852,"NAME":" ","Shape_Le_1":7.78494959828,"LABEL":"Transform Boundary","Shape_Length":4.0720775267882505}},{"type":"Feature","id":153,"geometry":{"type":"LineString","coordinates":[[172.615,-13.418],[172.74,-13.693],[172.881,-13.965],[173.019,-14.294],[173.139,-14.51],[173.178,-14.669],[173.21,-14.77],[173.259,-14.897],[173.294,-14.992],[173.32,-15.081],[173.346,-15.154],[173.357,-15.224],[173.359,-15.234],[173.388,-15.361],[173.428,-15.437],[173.464,-15.504],[173.516,-15.567],[173.539,-15.605],[173.547,-15.652],[173.555,-15.697]]},"properties":{"OBJECTID":153,"Shape_Leng":3.92858851303,"NAME":" ","Shape_Le_1":3.92858851364,"LABEL":"Divergent Boundary","Shape_Length":2.4821818832350986}},{"type":"Feature","id":154,"geometry":{"type":"LineString","coordinates":[[179.812,-15.661],[179.614,-15.678],[179.332,-15.729],[178.936,-15.812],[178.562,-15.897]]},"properties":{"OBJECTID":154,"Shape_Leng":6.76219048592,"NAME":"Fiji Fracture Zone","Shape_Le_1":6.76219048735,"LABEL":"Transform Boundary","Shape_Length":1.2729845425848083}},{"type":"Feature","id":155,"geometry":{"type":"LineString","coordinates":[[176.336,-17.823],[176.342,-18.038],[176.3,-18.14],[176.244,-18.242],[176.215,-18.319],[176.212,-18.611],[176.136,-18.732],[176.061,-18.895],[175.975,-19.022],[175.922,-19.08],[175.9,-19.162],[175.885,-19.327],[175.839,-19.445],[175.772,-19.547],[175.559,-19.755],[175.574,-19.977],[175.59,-20.189],[175.828,-20.629],[176.121,-21.166]]},"properties":{"OBJECTID":155,"Shape_Leng":5.33677155256,"NAME":" ","Shape_Le_1":5.33677155263,"LABEL":"Divergent Boundary","Shape_Length":3.7143772247609164}},{"type":"Feature","id":156,"geometry":{"type":"LineString","coordinates":[[176.121,-21.165],[175.733,-21.422],[175.231,-21.75],[174.584,-22.17],[174.034,-22.489],[174.034,-22.488],[173.784,-22.64],[173.446,-22.828],[172.962,-23.031],[172.425,-23.177]]},"properties":{"OBJECTID":156,"Shape_Leng":4.23378740826,"NAME":" ","Shape_Le_1":4.23378740772,"LABEL":"Transform Boundary","Shape_Length":4.233787407720346}},{"type":"Feature","id":157,"geometry":{"type":"LineString","coordinates":[[15.581,48.112],[14.51,48.012],[12.925,47.869],[12.211,47.769],[10.684,47.598],[9.028,47.298],[7.129,46.684],[6.201,46.013],[5.344,45.157],[5.302,44.714],[5.716,43.9],[6.215,43.615],[6.644,43.372]]},"properties":{"OBJECTID":157,"Shape_Leng":0,"NAME":"Alps","Shape_Le_1":13.3852388201,"LABEL":"Convergent Boundary","Shape_Length":13.385238820103673}},{"type":"Feature","id":158,"geometry":{"type":"LineString","coordinates":[[9.713,45.699],[10.413,45.528],[11.212,45.542],[12.183,45.856],[13.182,46.099],[13.725,45.899],[14.025,45.599],[14.767,45.142],[15.467,44.528],[16.337,43.843],[16.894,43.515],[17.751,42.986],[19.036,42.358],[19.25,42.244],[19.507,41.987],[19.821,41.059]]},"properties":{"OBJECTID":158,"Shape_Leng":0,"NAME":"Dinaric Alps","Shape_Le_1":12.1502909935,"LABEL":"Convergent Boundary","Shape_Length":12.150290993487149}},{"type":"Feature","id":159,"geometry":{"type":"LineString","coordinates":[[36.796,37.4],[36.865,37.427],[37.071,37.507],[37.291,37.625],[37.68,37.833],[38.041,37.994],[38.328,38.106],[38.87,38.319],[39.216,38.435],[39.576,38.56],[40.167,38.769],[40.633,38.863],[40.971,39.062]]},"properties":{"OBJECTID":159,"Shape_Leng":0,"NAME":"East Anatolian Fault","Shape_Le_1":4.51233358596,"LABEL":"Transform Boundary","Shape_Length":4.5123335859618985}},{"type":"Feature","id":160,"geometry":{"type":"LineString","coordinates":[[-173.836,-14.534],[-173.905,-14.629],[-174.007,-14.767],[-174.077,-14.895],[-174.139,-15.015],[-174.188,-15.133],[-174.264,-15.314]]},"properties":{"OBJECTID":160,"Shape_Leng":1.98575222808,"NAME":" ","Shape_Le_1":1.98575222774,"LABEL":"Divergent Boundary","Shape_Length":0.8940564697090216}},{"type":"Feature","id":161,"geometry":{"type":"LineString","coordinates":[[-174.264,-15.314],[-174.567,-15.251]]},"properties":{"OBJECTID":161,"Shape_Leng":1.98575222808,"NAME":" ","Shape_Le_1":1.98575222774,"LABEL":"Transform Boundary","Shape_Length":0.3094802094386055}},{"type":"Feature","id":162,"geometry":{"type":"LineString","coordinates":[[-174.869,-15.861],[-174.87,-15.88],[-174.601,-15.936]]},"properties":{"OBJECTID":162,"Shape_Leng":4.2545788023,"NAME":"Fonualei Rift","Shape_Le_1":4.25457880294,"LABEL":"Transform Boundary","Shape_Length":0.2938270752807267}},{"type":"Feature","id":163,"geometry":{"type":"LineString","coordinates":[[172.615,-13.418],[173.049,-13.489],[173.671,-13.517],[173.941,-13.295],[174.482,-13.396],[174.661,-13.415],[174.784,-13.395],[174.898,-13.335],[175.314,-13.244],[175.659,-13.326],[175.947,-13.422],[176.021,-13.643]]},"properties":{"OBJECTID":163,"Shape_Leng":7.78494959852,"NAME":" ","Shape_Le_1":7.78494959828,"LABEL":"Divergent Boundary","Shape_Length":3.712872071494695}},{"type":"Feature","id":164,"geometry":{"type":"LineString","coordinates":[[173.885,-16.842],[173.901,-16.849],[173.88,-17.163],[173.744,-17.49],[173.66,-17.68],[173.55,-17.962],[173.409,-18.238],[173.251,-18.532]]},"properties":{"OBJECTID":164,"Shape_Leng":6.73185282442,"NAME":"North Fiji Basin Spreading Center","Shape_Le_1":6.73185282319,"LABEL":"Divergent Boundary","Shape_Length":1.840905160512093}},{"type":"Feature","id":165,"geometry":{"type":"LineString","coordinates":[[174.119,-21.148],[174.115,-21.357],[174.112,-21.578],[174.09,-21.841],[174.056,-22.236],[174.029,-22.489]]},"properties":{"OBJECTID":165,"Shape_Leng":6.73185282442,"NAME":"North Fiji Basin Spreading Center","Shape_Le_1":6.73185282319,"LABEL":"Divergent Boundary","Shape_Length":1.3452383329105995}},{"type":"Feature","id":166,"geometry":{"type":"LineString","coordinates":[[176.183,-16.568],[176.179,-16.67],[176.148,-16.816],[176.106,-16.965],[176.065,-17.09],[176.036,-17.239],[175.986,-17.541],[175.973,-17.804]]},"properties":{"OBJECTID":166,"Shape_Leng":5.33677155256,"NAME":" ","Shape_Le_1":5.33677155263,"LABEL":"Divergent Boundary","Shape_Length":1.2588974229783632}},{"type":"Feature","id":167,"geometry":{"type":"LineString","coordinates":[[173.251,-18.532],[173.425,-18.52]]},"properties":{"OBJECTID":167,"Shape_Leng":6.73185282442,"NAME":"North Fiji Basin Spreading Center","Shape_Le_1":6.73185282319,"LABEL":"Transform Boundary","Shape_Length":0.17441330160566296}},{"type":"Feature","id":168,"geometry":{"type":"LineString","coordinates":[[173.379,-21.14],[174.119,-21.148]]},"properties":{"OBJECTID":168,"Shape_Leng":6.73185282442,"NAME":"North Fiji Basin Spreading Center","Shape_Le_1":6.73185282319,"LABEL":"Transform Boundary","Shape_Length":0.7400432424816122}},{"type":"Feature","id":169,"geometry":{"type":"LineString","coordinates":[[175.973,-17.804],[176.336,-17.823]]},"properties":{"OBJECTID":169,"Shape_Leng":5.33677155256,"NAME":" ","Shape_Le_1":5.33677155263,"LABEL":"Transform Boundary","Shape_Length":0.3634969048925927}},{"type":"Feature","id":170,"geometry":{"type":"LineString","coordinates":[[174.503,-16.563],[173.901,-16.849],[173.885,-16.842]]},"properties":{"OBJECTID":170,"Shape_Leng":6.76219048592,"NAME":"Fiji Fracture Zone","Shape_Le_1":6.76219048735,"LABEL":"Transform Boundary","Shape_Length":0.6844012916002667}},{"type":"Feature","id":171,"geometry":{"type":"LineString","coordinates":[[177.412,-16.51],[177.269,-16.506],[177.19,-16.504],[177.13,-16.505],[177.035,-16.516],[176.949,-16.523],[176.883,-16.544],[176.79,-16.545],[176.671,-16.553],[176.545,-16.557],[176.377,-16.569],[176.184,-16.552],[176.081,-16.554],[175.893,-16.558],[175.612,-16.586],[175.487,-16.622],[175.381,-16.629],[175.226,-16.741],[175.107,-16.748],[174.885,-16.873]]},"properties":{"OBJECTID":171,"Shape_Leng":6.76219048592,"NAME":"Fiji Fracture Zone","Shape_Le_1":6.76219048735,"LABEL":"Transform Boundary","Shape_Length":2.608755258629704}},{"type":"Feature","id":172,"geometry":{"type":"LineString","coordinates":[[178.491,-16.092],[178.402,-16.104],[178.283,-16.11],[178.171,-16.115],[178.086,-16.148],[178.007,-16.172],[177.876,-16.222],[177.806,-16.227],[177.721,-16.229],[177.588,-16.224],[177.4,-16.212]]},"properties":{"OBJECTID":172,"Shape_Leng":6.76219048592,"NAME":"Fiji Fracture Zone","Shape_Le_1":6.76219048735,"LABEL":"Transform Boundary","Shape_Length":1.111710424863616}},{"type":"Feature","id":173,"geometry":{"type":"LineString","coordinates":[[174.885,-16.873],[174.503,-16.563]]},"properties":{"OBJECTID":173,"Shape_Leng":6.76219048592,"NAME":"Fiji Fracture Zone","Shape_Le_1":6.76219048735,"LABEL":"Divergent Boundary","Shape_Length":0.49195934805455815}},{"type":"Feature","id":174,"geometry":{"type":"LineString","coordinates":[[177.4,-16.212],[177.345,-16.302],[177.414,-16.3],[177.412,-16.51]]},"properties":{"OBJECTID":174,"Shape_Leng":6.76219048592,"NAME":"Fiji Fracture Zone","Shape_Le_1":6.76219048735,"LABEL":"Divergent Boundary","Shape_Length":0.3845136191544903}},{"type":"Feature","id":175,"geometry":{"type":"LineString","coordinates":[[178.562,-15.897],[178.524,-15.984],[178.491,-16.092]]},"properties":{"OBJECTID":175,"Shape_Leng":6.76219048592,"NAME":"Fiji Fracture Zone","Shape_Le_1":6.76219048735,"LABEL":"Divergent Boundary","Shape_Length":0.20786600246648324}},{"type":"Feature","id":176,"geometry":{"type":"LineString","coordinates":[[173.455,-16.259],[173.593,-16.497],[173.669,-16.614],[173.718,-16.713],[173.83,-16.816],[173.898,-16.847]]},"properties":{"OBJECTID":176,"Shape_Leng":3.92858851303,"NAME":" ","Shape_Le_1":3.92858851364,"LABEL":"Divergent Boundary","Shape_Length":0.7525024856672469}},{"type":"Feature","id":177,"geometry":{"type":"LineString","coordinates":[[173.4,-15.779],[173.485,-15.922],[173.531,-16.027],[173.567,-16.151]]},"properties":{"OBJECTID":177,"Shape_Leng":3.92858851303,"NAME":" ","Shape_Le_1":3.92858851364,"LABEL":"Divergent Boundary","Shape_Length":0.4101093424734249}},{"type":"Feature","id":178,"geometry":{"type":"LineString","coordinates":[[173.555,-15.697],[173.4,-15.779]]},"properties":{"OBJECTID":178,"Shape_Leng":3.92858851303,"NAME":" ","Shape_Le_1":3.92858851364,"LABEL":"Transform Boundary","Shape_Length":0.17535392776530584}},{"type":"Feature","id":179,"geometry":{"type":"LineString","coordinates":[[173.567,-16.151],[173.455,-16.259]]},"properties":{"OBJECTID":179,"Shape_Leng":3.92858851303,"NAME":" ","Shape_Le_1":3.92858851364,"LABEL":"Transform Boundary","Shape_Length":0.15558920278212698}},{"type":"Feature","id":180,"geometry":{"type":"LineString","coordinates":[[146.916,-8.409],[146.918,-8.41],[146.954,-8.598],[147.539,-8.886],[148.207,-9.212],[148.751,-9.57]]},"properties":{"OBJECTID":180,"Shape_Leng":7.24913458959,"NAME":"Woodlark Basin Spreading System","Shape_Le_1":7.24913458911,"LABEL":"Divergent Boundary","Shape_Length":2.239749109116974}},{"type":"Feature","id":181,"geometry":{"type":"LineString","coordinates":[[149.133,-9.353],[149.676,-9.801],[150.245,-9.945]]},"properties":{"OBJECTID":181,"Shape_Leng":7.24913458959,"NAME":"Woodlark Basin Spreading System","Shape_Le_1":7.24913458911,"LABEL":"Divergent Boundary","Shape_Length":1.29089392245242}},{"type":"Feature","id":182,"geometry":{"type":"LineString","coordinates":[[150.466,-9.687],[151.005,-9.681],[151.545,-9.676],[151.654,-9.76],[151.834,-9.761]]},"properties":{"OBJECTID":182,"Shape_Leng":7.24913458959,"NAME":"Woodlark Basin Spreading System","Shape_Le_1":7.24913458911,"LABEL":"Divergent Boundary","Shape_Length":1.3966707345000577}},{"type":"Feature","id":183,"geometry":{"type":"LineString","coordinates":[[151.838,-9.906],[151.935,-9.932],[152.024,-9.942],[152.086,-9.944],[152.214,-9.945]]},"properties":{"OBJECTID":183,"Shape_Leng":7.24913458959,"NAME":"Woodlark Basin Spreading System","Shape_Le_1":7.24913458911,"LABEL":"Divergent Boundary","Shape_Length":0.3800104830095848}},{"type":"Feature","id":184,"geometry":{"type":"LineString","coordinates":[[148.751,-9.57],[149.133,-9.353]]},"properties":{"OBJECTID":184,"Shape_Leng":7.24913458959,"NAME":"Woodlark Basin Spreading System","Shape_Le_1":7.24913458911,"LABEL":"Transform Boundary","Shape_Length":0.43933244836320984}},{"type":"Feature","id":185,"geometry":{"type":"LineString","coordinates":[[150.245,-9.945],[150.466,-9.687]]},"properties":{"OBJECTID":185,"Shape_Leng":7.24913458959,"NAME":"Woodlark Basin Spreading System","Shape_Le_1":7.24913458911,"LABEL":"Transform Boundary","Shape_Length":0.3397131149425133}},{"type":"Feature","id":186,"geometry":{"type":"LineString","coordinates":[[151.834,-9.761],[151.838,-9.906]]},"properties":{"OBJECTID":186,"Shape_Leng":7.24913458959,"NAME":"Woodlark Basin Spreading System","Shape_Le_1":7.24913458911,"LABEL":"Transform Boundary","Shape_Length":0.1450552398004558}},{"type":"Feature","id":187,"geometry":{"type":"LineString","coordinates":[[152.214,-9.945],[152.223,-10.039]]},"properties":{"OBJECTID":187,"Shape_Leng":7.24913458959,"NAME":"Woodlark Basin Spreading System","Shape_Le_1":7.24913458911,"LABEL":"Transform Boundary","Shape_Length":0.09442986740331358}},{"type":"Feature","id":188,"geometry":{"type":"LineString","coordinates":[[152.849,-10.088],[152.856,-10.382]]},"properties":{"OBJECTID":188,"Shape_Leng":7.24913458959,"NAME":"Woodlark Basin Spreading System","Shape_Le_1":7.24913458911,"LABEL":"Transform Boundary","Shape_Length":0.29425560182552996}},{"type":"Feature","id":189,"geometry":{"type":"LineString","coordinates":[[149.902,-3.707],[150.121,-3.79],[150.192,-3.829],[150.226,-3.874],[150.24,-3.903]]},"properties":{"OBJECTID":189,"Shape_Leng":2.02210295476,"NAME":" ","Shape_Le_1":2.02210295326,"LABEL":"Transform Boundary","Shape_Length":0.40381444482594836}},{"type":"Feature","id":190,"geometry":{"type":"LineString","coordinates":[[150.987,-3.692],[151.095,-3.806]]},"properties":{"OBJECTID":190,"Shape_Leng":2.02210295476,"NAME":" ","Shape_Le_1":2.02210295326,"LABEL":"Transform Boundary","Shape_Length":0.15703502772201827}},{"type":"Feature","id":191,"geometry":{"type":"LineString","coordinates":[[151.301,-3.656],[151.375,-3.706],[151.407,-3.737]]},"properties":{"OBJECTID":191,"Shape_Leng":2.02210295476,"NAME":" ","Shape_Le_1":2.02210295326,"LABEL":"Transform Boundary","Shape_Length":0.1340596243463053}},{"type":"Feature","id":192,"geometry":{"type":"LineString","coordinates":[[150.24,-3.903],[150.32,-3.881],[150.447,-3.857],[150.552,-3.839],[150.678,-3.818],[150.793,-3.775],[150.909,-3.724],[150.987,-3.692]]},"properties":{"OBJECTID":192,"Shape_Leng":2.02210295476,"NAME":" ","Shape_Le_1":2.02210295326,"LABEL":"Divergent Boundary","Shape_Length":0.7802887892693778}},{"type":"Feature","id":193,"geometry":{"type":"LineString","coordinates":[[151.095,-3.806],[151.222,-3.737],[151.301,-3.656]]},"properties":{"OBJECTID":193,"Shape_Leng":2.02210295476,"NAME":" ","Shape_Le_1":2.02210295326,"LABEL":"Divergent Boundary","Shape_Length":0.25767965650042357}},{"type":"Feature","id":194,"geometry":{"type":"LineString","coordinates":[[119.696,2.033],[120.377,2.239],[120.824,2.311],[121.465,2.309],[123.43,2.006]]},"properties":{"OBJECTID":194,"Shape_Leng":0,"NAME":" ","Shape_Le_1":0,"LABEL":"Convergent Boundary","Shape_Length":3.7934743216809803}},{"type":"Feature","id":195,"geometry":{"type":"LineString","coordinates":[[142.281,22.981],[142.56,22.662],[142.774,22.377],[142.997,22.139],[143.15,21.928],[143.218,21.659],[143.28,21.32],[143.321,21.061],[143.281,20.962],[143.392,20.728],[143.493,20.532],[143.575,20.397]]},"properties":{"OBJECTID":195,"Shape_Leng":13.5351339485,"NAME":"Mariana Trough","Shape_Le_1":13.5351339483,"LABEL":"Divergent Boundary","Shape_Length":2.9952233235509937}},{"type":"Feature","id":196,"geometry":{"type":"LineString","coordinates":[[143.842,20.418],[143.97,20.111],[144.083,19.858],[144.137,19.753]]},"properties":{"OBJECTID":196,"Shape_Leng":13.5351339485,"NAME":"Mariana Trough","Shape_Le_1":13.5351339483,"LABEL":"Divergent Boundary","Shape_Length":0.7277758387229016}},{"type":"Feature","id":197,"geometry":{"type":"LineString","coordinates":[[144.252,19.725],[144.527,19.123],[144.543,19.073],[144.601,18.756],[144.626,18.359],[144.663,18.166],[144.706,18.02],[144.773,17.829],[144.97,17.535]]},"properties":{"OBJECTID":197,"Shape_Leng":13.5351339485,"NAME":"Mariana Trough","Shape_Le_1":13.5351339483,"LABEL":"Divergent Boundary","Shape_Length":2.3394092362781427}},{"type":"Feature","id":198,"geometry":{"type":"LineString","coordinates":[[144.671,17.42],[144.798,16.979],[144.841,16.478],[144.792,16.123],[144.799,15.653]]},"properties":{"OBJECTID":198,"Shape_Leng":13.5351339485,"NAME":"Mariana Trough","Shape_Le_1":13.5351339483,"LABEL":"Divergent Boundary","Shape_Length":1.7901824342736725}},{"type":"Feature","id":199,"geometry":{"type":"LineString","coordinates":[[144.453,15.526],[144.53,14.917]]},"properties":{"OBJECTID":199,"Shape_Leng":13.5351339485,"NAME":"Mariana Trough","Shape_Le_1":13.5351339483,"LABEL":"Divergent Boundary","Shape_Length":0.6138485157075977}},{"type":"Feature","id":200,"geometry":{"type":"LineString","coordinates":[[144.334,14.884],[144.216,14.656]]},"properties":{"OBJECTID":200,"Shape_Leng":13.5351339485,"NAME":"Mariana Trough","Shape_Le_1":13.5351339483,"LABEL":"Divergent Boundary","Shape_Length":0.2567255337504207}},{"type":"Feature","id":201,"geometry":{"type":"LineString","coordinates":[[144.137,19.753],[144.252,19.725]]},"properties":{"OBJECTID":201,"Shape_Leng":13.5351339485,"NAME":"Mariana Trough","Shape_Le_1":13.5351339483,"LABEL":"Transform Boundary","Shape_Length":0.11835962139738371}},{"type":"Feature","id":202,"geometry":{"type":"LineString","coordinates":[[144.97,17.535],[144.671,17.42]]},"properties":{"OBJECTID":202,"Shape_Leng":13.5351339485,"NAME":"Mariana Trough","Shape_Le_1":13.5351339483,"LABEL":"Transform Boundary","Shape_Length":0.32035292956462563}},{"type":"Feature","id":203,"geometry":{"type":"LineString","coordinates":[[144.799,15.653],[144.453,15.526]]},"properties":{"OBJECTID":203,"Shape_Leng":13.5351339485,"NAME":"Mariana Trough","Shape_Le_1":13.5351339483,"LABEL":"Transform Boundary","Shape_Length":0.36857156717874834}},{"type":"Feature","id":204,"geometry":{"type":"LineString","coordinates":[[144.53,14.917],[144.334,14.884]]},"properties":{"OBJECTID":204,"Shape_Leng":13.5351339485,"NAME":"Mariana Trough","Shape_Le_1":13.5351339483,"LABEL":"Transform Boundary","Shape_Length":0.19875864802970433}},{"type":"Feature","id":205,"geometry":{"type":"LineString","coordinates":[[144.216,14.656],[144.082,14.639]]},"properties":{"OBJECTID":205,"Shape_Leng":13.5351339485,"NAME":"Mariana Trough","Shape_Le_1":13.5351339483,"LABEL":"Transform Boundary","Shape_Length":0.13507405392984986}},{"type":"Feature","id":206,"geometry":{"type":"LineString","coordinates":[[143.575,20.397],[143.842,20.418]]},"properties":{"OBJECTID":206,"Shape_Leng":13.5351339485,"NAME":"Mariana Trough","Shape_Le_1":13.5351339483,"LABEL":"Transform Boundary","Shape_Length":0.26782456958566614}},{"type":"Feature","id":207,"geometry":{"type":"LineString","coordinates":[[123.721,24.898],[123.182,24.86],[122.554,25.065],[122.024,24.853],[121.721,24.744]]},"properties":{"OBJECTID":207,"Shape_Leng":13.4015894626,"NAME":"Okinawa Trough","Shape_Le_1":13.4015894626,"LABEL":"Divergent Boundary","Shape_Length":2.093954299917794}},{"type":"Feature","id":208,"geometry":{"type":"LineString","coordinates":[[124.705,25.12],[124.148,25.07],[123.755,25.017]]},"properties":{"OBJECTID":208,"Shape_Leng":13.4015894626,"NAME":"Okinawa Trough","Shape_Le_1":13.4015894626,"LABEL":"Divergent Boundary","Shape_Length":0.9557973512631642}},{"type":"Feature","id":209,"geometry":{"type":"LineString","coordinates":[[125.736,25.644],[125.159,25.569],[124.697,25.475]]},"properties":{"OBJECTID":209,"Shape_Leng":13.4015894626,"NAME":"Okinawa Trough","Shape_Le_1":13.4015894626,"LABEL":"Divergent Boundary","Shape_Length":1.053319732543435}},{"type":"Feature","id":210,"geometry":{"type":"LineString","coordinates":[[126.82,26.811],[126.477,26.54],[126.383,26.37],[126.065,26.123],[125.663,25.927]]},"properties":{"OBJECTID":210,"Shape_Leng":13.4015894626,"NAME":"Okinawa Trough","Shape_Le_1":13.4015894626,"LABEL":"Divergent Boundary","Shape_Length":1.481289360759647}},{"type":"Feature","id":211,"geometry":{"type":"LineString","coordinates":[[127.417,27.485],[126.885,27.149],[126.745,27.006]]},"properties":{"OBJECTID":211,"Shape_Leng":13.4015894626,"NAME":"Okinawa Trough","Shape_Le_1":13.4015894626,"LABEL":"Divergent Boundary","Shape_Length":0.8293442039312551}},{"type":"Feature","id":212,"geometry":{"type":"LineString","coordinates":[[128.557,28.401],[128.049,28.053],[127.599,27.79],[127.347,27.662]]},"properties":{"OBJECTID":212,"Shape_Leng":13.4015894626,"NAME":"Okinawa Trough","Shape_Le_1":13.4015894626,"LABEL":"Divergent Boundary","Shape_Length":1.4196296069418204}},{"type":"Feature","id":213,"geometry":{"type":"LineString","coordinates":[[129.055,29.355],[128.687,29.032],[128.321,28.708]]},"properties":{"OBJECTID":213,"Shape_Leng":13.4015894626,"NAME":"Okinawa Trough","Shape_Le_1":13.4015894626,"LABEL":"Divergent Boundary","Shape_Length":0.9784525009589553}},{"type":"Feature","id":214,"geometry":{"type":"LineString","coordinates":[[128.881,30.104],[128.646,29.893]]},"properties":{"OBJECTID":214,"Shape_Leng":13.4015894626,"NAME":"Okinawa Trough","Shape_Le_1":13.4015894626,"LABEL":"Divergent Boundary","Shape_Length":0.3158259019607463}},{"type":"Feature","id":215,"geometry":{"type":"LineString","coordinates":[[129.032,30.585],[128.848,30.387]]},"properties":{"OBJECTID":215,"Shape_Leng":13.4015894626,"NAME":"Okinawa Trough","Shape_Le_1":13.4015894626,"LABEL":"Divergent Boundary","Shape_Length":0.27029613396560975}},{"type":"Feature","id":216,"geometry":{"type":"LineString","coordinates":[[123.755,25.017],[123.721,24.898]]},"properties":{"OBJECTID":216,"Shape_Leng":13.4015894626,"NAME":"Okinawa Trough","Shape_Le_1":13.4015894626,"LABEL":"Transform Boundary","Shape_Length":0.12376186802857116}},{"type":"Feature","id":217,"geometry":{"type":"LineString","coordinates":[[124.697,25.475],[124.705,25.12]]},"properties":{"OBJECTID":217,"Shape_Leng":13.4015894626,"NAME":"Okinawa Trough","Shape_Le_1":13.4015894626,"LABEL":"Transform Boundary","Shape_Length":0.35509012995773404}},{"type":"Feature","id":218,"geometry":{"type":"LineString","coordinates":[[125.663,25.927],[125.736,25.644]]},"properties":{"OBJECTID":218,"Shape_Leng":13.4015894626,"NAME":"Okinawa Trough","Shape_Le_1":13.4015894626,"LABEL":"Transform Boundary","Shape_Length":0.29226357916650675}},{"type":"Feature","id":219,"geometry":{"type":"LineString","coordinates":[[126.745,27.006],[126.82,26.811]]},"properties":{"OBJECTID":219,"Shape_Leng":13.4015894626,"NAME":"Okinawa Trough","Shape_Le_1":13.4015894626,"LABEL":"Transform Boundary","Shape_Length":0.20892582424384665}},{"type":"Feature","id":220,"geometry":{"type":"LineString","coordinates":[[127.347,27.662],[127.417,27.485]]},"properties":{"OBJECTID":220,"Shape_Leng":13.4015894626,"NAME":"Okinawa Trough","Shape_Le_1":13.4015894626,"LABEL":"Transform Boundary","Shape_Length":0.19033917091105024}},{"type":"Feature","id":221,"geometry":{"type":"LineString","coordinates":[[128.321,28.708],[128.557,28.401]]},"properties":{"OBJECTID":221,"Shape_Leng":13.4015894626,"NAME":"Okinawa Trough","Shape_Le_1":13.4015894626,"LABEL":"Transform Boundary","Shape_Length":0.387227323205702}},{"type":"Feature","id":222,"geometry":{"type":"LineString","coordinates":[[128.646,29.893],[129.055,29.355]]},"properties":{"OBJECTID":222,"Shape_Leng":13.4015894626,"NAME":"Okinawa Trough","Shape_Le_1":13.4015894626,"LABEL":"Transform Boundary","Shape_Length":0.6758143230032815}},{"type":"Feature","id":223,"geometry":{"type":"LineString","coordinates":[[128.848,30.387],[128.881,30.104]]},"properties":{"OBJECTID":223,"Shape_Leng":13.4015894626,"NAME":"Okinawa Trough","Shape_Le_1":13.4015894626,"LABEL":"Transform Boundary","Shape_Length":0.28491753159806854}},{"type":"Feature","id":224,"geometry":{"type":"LineString","coordinates":[[128.819,31.024],[129.032,30.585]]},"properties":{"OBJECTID":224,"Shape_Leng":13.4015894626,"NAME":"Okinawa Trough","Shape_Le_1":13.4015894626,"LABEL":"Transform Boundary","Shape_Length":0.48794466901485295}},{"type":"Feature","id":225,"geometry":{"type":"LineString","coordinates":[[104.484,51.343],[104.904,50.786],[105.375,50.143],[105.582,49.292],[105.781,48.441],[105.916,47.91],[106.048,47.38],[106.177,46.849],[106.304,46.318],[106.46,45.875],[106.614,45.431],[106.765,44.987],[106.914,44.543],[107.061,44.099],[107.205,43.655],[108.131,43.149],[109.041,42.636],[109.693,42.07],[110.57,41.601],[111.435,41.126],[112.287,40.645]]},"properties":{"OBJECTID":225,"Shape_Leng":38.9911006949,"NAME":" ","Shape_Le_1":38.9911006945,"LABEL":"Divergent Boundary","Shape_Length":14.165134673518967}},{"type":"Feature","id":226,"geometry":{"type":"LineString","coordinates":[[112.287,40.645],[112.911,41.024],[113.542,41.399],[114.392,41.163],[115.235,40.921],[115.81,40.596],[116.379,40.267],[117.01,40.057],[117.638,39.843],[118.245,40.054],[118.856,40.261],[119.846,40.654],[120.848,41.039],[121.313,41.329],[121.782,41.617],[122.255,41.904],[122.732,42.188]]},"properties":{"OBJECTID":226,"Shape_Leng":38.9911006949,"NAME":" ","Shape_Le_1":38.9911006945,"LABEL":"Other","Shape_Length":11.50265496385694}},{"type":"Feature","id":228,"geometry":{"type":"LineString","coordinates":[[-70.553,13.214],[-71.195,13.503],[-72.782,13.584],[-73.274,13.509],[-74.058,12.386],[-75.123,11.764],[-75.905,11.087],[-76.594,10.09],[-77.116,9.155],[-77.135,9.08]]},"properties":{"OBJECTID":228,"Shape_Leng":0,"NAME":" ","Shape_Le_1":0,"LABEL":"Convergent Boundary","Shape_Length":8.788201707684118}},{"type":"Feature","id":229,"geometry":{"type":"LineString","coordinates":[[-81.654,9.444],[-80.636,10.154],[-79.104,10.764],[-78.229,10.615],[-77.499,10.098],[-77.135,9.08]]},"properties":{"OBJECTID":229,"Shape_Leng":0,"NAME":" ","Shape_Le_1":0,"LABEL":"Convergent Boundary","Shape_Length":5.753675106596546}}]}